[{"place_id": 285431919, "parent_place_id": 0, "osm_type": "R", "osm_id": 3495537, "category": "boundary", "type": "administrative", "admin_level": 4, "localname": "Baringo", "names": {"ISO3166-2": "KE-01", "name": "Baringo", "name:ceb": "Baringo", "name:de": "Baringo", "name:en": "Baringo", "name:es": "Baringo", "name:fa": "شهرستان بارینگو", "name:fr": "Baringo", "name:id": "Baringo", "name:it": "Baringo", "name:ja": "バリンゴ", "name:ko": "바링고현", "name:nan": "Baringo", "name:nl": "County", "name:no": "Baringo", "name:pl": "Baringo", "name:ru": "Баринго", "name:sv": "Baringo", "name:sw": "Baringo", "name:uk": "Баринго", "name:ur": "بارنگو کاؤنٹی", "name:vi": "Baringo", "name:zh": "巴林戈郡", "name:zu": "Baringo"}, "addresstags": [], "housenumber": null, "calculated_postcode": null, "country_code": "ke", "indexed_date": "2022-05-19T11:48:29+00:00", "importance": 0.4218624012455261, "calculated_importance": 0.4218624012455261, "extratags": {"CONST_CODE": "159", "CONSTITUEN": "BARINGO CENTRAL", "COUNTY_COD": "30", "COUNTY_NAM": "BARINGO", "ID_": "1555", "OBJECTID": "29", "Shape_Area": "0.88451236882", "Shape_Leng": "5.81571392065", "wikidata": "Q808201", "wikipedia": "en:Baringo County"}, "calculated_wikipedia": "en:Baringo_County", "icon": "https://nominatim.openstreetmap.org/ui/mapicons/poi_boundary_administrative.p.20.png", "rank_address": 8, "rank_search": 8, "isarea": true, "centroid": {"type": "Point", "coordinates": [36.020141937892475, 0.72444025]}, "geometry": {"type": "Point", "coordinates": [36.020141938, 0.72444025]}, "address": [{"localname": "Baringo", "place_id": 285431919, "osm_id": 3495537, "osm_type": "R", "place_type": null, "class": "boundary", "type": "administrative", "admin_level": 4, "rank_address": 8, "distance": 0, "isaddress": true}, {"localname": "Kenya", "place_id": null, "osm_id": null, "osm_type": null, "place_type": null, "class": "place", "type": "country", "admin_level": null, "rank_address": 4, "distance": 0, "isaddress": true}, {"localname": "ke", "place_id": null, "osm_id": null, "osm_type": null, "place_type": null, "class": "place", "type": "country_code", "admin_level": null, "rank_address": 4, "distance": 0, "isaddress": false}]}, {"place_id": 285399759, "parent_place_id": 0, "osm_type": "R", "osm_id": 3338139, "category": "boundary", "type": "administrative", "admin_level": 4, "localname": "Bomet", "names": {"ISO3166-2": "KE-02", "name": "Bomet", "name:ceb": "Bomet", "name:de": "Bomet", "name:en": "Bomet", "name:es": "Bomet", "name:fa": "شهرستان بومت", "name:fr": "Bomet", "name:id": "Bomet", "name:it": "Bomet", "name:ja": "ボメット", "name:ko": "보메트현", "name:nan": "Bomet Kūn", "name:nl": "Bomet", "name:no": "Bomet", "name:pl": "Bomet", "name:ru": "Бомет", "name:sv": "Bomet", "name:sw": "Bomet", "name:uk": "Бомет", "name:ur": "بومت کاؤنٹی", "name:vi": "Bomet", "name:zh": "博美特郡", "name:zu": "Bomet", "ref": "36"}, "addresstags": [], "housenumber": null, "calculated_postcode": null, "country_code": "ke", "indexed_date": "2022-05-13T06:16:40+00:00", "importance": 0.40358245491998124, "calculated_importance": 0.40358245491998124, "extratags": {"admin_type:KE": "county", "border_type": "county", "land_area": "administrative", "wikidata": "Q891952", "wikipedia": "en:Bomet County"}, "calculated_wikipedia": "en:Bomet_County", "icon": "https://nominatim.openstreetmap.org/ui/mapicons/poi_boundary_administrative.p.20.png", "rank_address": 8, "rank_search": 8, "isarea": true, "centroid": {"type": "Point", "coordinates": [35.23963843035895, -0.7196054000000001]}, "geometry": {"type": "Point", "coordinates": [35.23963843, -0.7196054]}, "address": [{"localname": "Bomet", "place_id": 285399759, "osm_id": 3338139, "osm_type": "R", "place_type": null, "class": "boundary", "type": "administrative", "admin_level": 4, "rank_address": 8, "distance": 0, "isaddress": true}, {"localname": "Kenya", "place_id": null, "osm_id": null, "osm_type": null, "place_type": null, "class": "place", "type": "country", "admin_level": null, "rank_address": 4, "distance": 0, "isaddress": true}, {"localname": "ke", "place_id": null, "osm_id": null, "osm_type": null, "place_type": null, "class": "place", "type": "country_code", "admin_level": null, "rank_address": 4, "distance": 0, "isaddress": false}]}, {"place_id": 284371192, "parent_place_id": 285792318, "osm_type": "R", "osm_id": 3495538, "category": "boundary", "type": "administrative", "admin_level": 4, "localname": "Bungoma County", "names": {"ISO3166-2": "KE-03", "name": "Bungoma", "name:de": "Bungoma County", "name:en": "Bungoma County", "name:es": "Condado de Bungoma", "name:fa": "شهرستان بونگوما", "name:fi": "Bungoman piirikunta", "name:fr": "Comté de Bungoma", "name:id": "County Bungoma", "name:it": "Contea di Bungoma", "name:ja": "ブンゴマ", "name:ko": "붕고마현", "name:nan": "Bungoma Kūn", "name:nl": "Bungoma County", "name:no": "Bungoma fylke", "name:pl": "Bungoma", "name:ru": "Бунгома", "name:sw": "Kaunti ya Bungoma", "name:uk": "Бунгома", "name:ur": "بونگوما کاؤنٹی", "name:vi": "Bungoma", "name:zh": "邦戈馬郡", "name:zu": "Bungoma County"}, "addresstags": [], "housenumber": null, "calculated_postcode": null, "country_code": "ke", "indexed_date": "2022-05-17T08:57:20+00:00", "importance": 0.40651377880971323, "calculated_importance": 0.40651377880971323, "extratags": {"wikidata": "Q2928204", "wikipedia": "en:Bungoma County"}, "calculated_wikipedia": "en:Bungoma_County", "icon": "https://nominatim.openstreetmap.org/ui/mapicons/poi_boundary_administrative.p.20.png", "rank_address": 8, "rank_search": 8, "isarea": true, "centroid": {"type": "Point", "coordinates": [34.71916810731902, 0.78292445]}, "geometry": {"type": "Point", "coordinates": [34.719168107, 0.78292445]}, "address": [{"localname": "Bungoma County", "place_id": 284371192, "osm_id": 3495538, "osm_type": "R", "place_type": null, "class": "boundary", "type": "administrative", "admin_level": 4, "rank_address": 8, "distance": 0, "isaddress": true}, {"localname": "West Kenya", "place_id": 285792318, "osm_id": 9721837, "osm_type": "R", "place_type": null, "class": "boundary", "type": "administrative", "admin_level": 3, "rank_address": 6, "distance": 3.223427127100647e-06, "isaddress": true}, {"localname": "Kenya", "place_id": null, "osm_id": null, "osm_type": null, "place_type": null, "class": "place", "type": "country", "admin_level": null, "rank_address": 4, "distance": 0, "isaddress": true}, {"localname": "ke", "place_id": null, "osm_id": null, "osm_type": null, "place_type": null, "class": "place", "type": "country_code", "admin_level": null, "rank_address": 4, "distance": 0, "isaddress": false}]}, {"place_id": 284313728, "parent_place_id": 285792318, "osm_type": "R", "osm_id": 3486321, "category": "boundary", "type": "administrative", "admin_level": 4, "localname": "Busia County", "names": {"ISO3166-2": "KE-04", "name": "Busia", "name:ceb": "Busia", "name:de": "Busia County", "name:en": "Busia County", "name:es": "Condado de Busia", "name:fa": "شهرستان بوسیا", "name:fr": "Comté de Busia", "name:id": "County Busia", "name:it": "Contea di Busia", "name:ja": "ブシア", "name:ko": "부시아현", "name:nan": "Busia Kūn", "name:nl": "Busia County", "name:no": "Busia fylke", "name:pl": "Busia", "name:ru": "Бусиа", "name:sv": "Busia", "name:sw": "Kaunti ya Busia", "name:uk": "Бусія", "name:ur": "بوسیا کاؤنٹی", "name:vi": "Busia", "name:zh": "布希亞郡", "name:zu": "Busia County"}, "addresstags": [], "housenumber": null, "calculated_postcode": null, "country_code": "ke", "indexed_date": "2022-05-19T12:03:41+00:00", "importance": 0.40445917524213204, "calculated_importance": 0.40445917524213204, "extratags": {"CONST_CODE": "225", "CONSTITUEN": "TESO NORTH", "COUNTY_COD": "40", "COUNTY_NAM": "BUSIA", "disused:id": "1295", "OBJECTID": "39", "Shape_Area": "0.14764386658", "Shape_Leng": "2.57838796438", "wikidata": "Q1017519", "wikipedia": "en:Busia County"}, "calculated_wikipedia": "en:Busia_County", "icon": "https://nominatim.openstreetmap.org/ui/mapicons/poi_boundary_administrative.p.20.png", "rank_address": 8, "rank_search": 8, "isarea": true, "centroid": {"type": "Point", "coordinates": [34.26479520608315, 0.3712048]}, "geometry": {"type": "Point", "coordinates": [34.264795206, 0.3712048]}, "address": [{"localname": "Busia County", "place_id": 284313728, "osm_id": 3486321, "osm_type": "R", "place_type": null, "class": "boundary", "type": "administrative", "admin_level": 4, "rank_address": 8, "distance": 0, "isaddress": true}, {"localname": "West Kenya", "place_id": 285792318, "osm_id": 9721837, "osm_type": "R", "place_type": null, "class": "boundary", "type": "administrative", "admin_level": 3, "rank_address": 6, "distance": 2.919905863869452e-06, "isaddress": true}, {"localname": "Kenya", "place_id": null, "osm_id": null, "osm_type": null, "place_type": null, "class": "place", "type": "country", "admin_level": null, "rank_address": 4, "distance": 0, "isaddress": true}, {"localname": "ke", "place_id": null, "osm_id": null, "osm_type": null, "place_type": null, "class": "place", "type": "country_code", "admin_level": null, "rank_address": 4, "distance": 0, "isaddress": false}]}, {"place_id": 285330507, "parent_place_id": 0, "osm_type": "R", "osm_id": 11981582, "category": "boundary", "type": "administrative", "admin_level": 4, "localname": "Elgeyo-Marakwet County", "names": {"ISO3166-2": "KE-05", "name": "Elgeyo-Marakwet", "name:de": "Elgeyo-Marakwet County", "name:en": "Elgeyo-Marakwet County", "name:es": "Condado de Elgeyo-Marakwet", "name:fa": "شهرستان الگیو-ماراک‌وت", "name:id": "County Elgeyo-Marakwet", "name:it": "Contea di Elgeyo-Marakwet", "name:ja": "エルゲーヨ＝マラクウェト", "name:ko": "엘게요마라퀘트현", "name:nan": "Elgeyo-Marakwet Kūn", "name:nl": "Elgeyo-Marakwet County", "name:no": "Elgeyo-Marakwet fylke", "name:pl": "Elgeyo-Marakwet", "name:ru": "Элгейо-Мараквет", "name:sw": "Kaunti ya Elgeyo-Marakwet", "name:ur": "ایلگیو-ماراکوت کاؤنٹی", "name:zh": "埃爾格約-馬拉奎特郡", "name:zu": "Elgeyo-Marakwet County"}, "addresstags": [], "housenumber": null, "calculated_postcode": null, "country_code": "ke", "indexed_date": "2022-05-17T13:16:20+00:00", "importance": 0.39813941124028646, "calculated_importance": 0.39813941124028646, "extratags": {"wikidata": "Q15216433", "wikipedia": "en:Elgeyo-Marakwet County"}, "calculated_wikipedia": "en:Elgeyo-Marakwet_County", "icon": "https://nominatim.openstreetmap.org/ui/mapicons/poi_boundary_administrative.p.20.png", "rank_address": 8, "rank_search": 8, "isarea": true, "centroid": {"type": "Point", "coordinates": [35.561808313539316, 0.7422191499999999]}, "geometry": {"type": "Point", "coordinates": [35.561808314, 0.74221915]}, "address": [{"localname": "Elgeyo-Marakwet County", "place_id": 285330507, "osm_id": 11981582, "osm_type": "R", "place_type": null, "class": "boundary", "type": "administrative", "admin_level": 4, "rank_address": 8, "distance": 0, "isaddress": true}, {"localname": "Kenya", "place_id": null, "osm_id": null, "osm_type": null, "place_type": null, "class": "place", "type": "country", "admin_level": null, "rank_address": 4, "distance": 0, "isaddress": true}, {"localname": "ke", "place_id": null, "osm_id": null, "osm_type": null, "place_type": null, "class": "place", "type": "country_code", "admin_level": null, "rank_address": 4, "distance": 0, "isaddress": false}]}, {"place_id": 285340588, "parent_place_id": 285443095, "osm_type": "R", "osm_id": 3495540, "category": "boundary", "type": "administrative", "admin_level": 4, "localname": "Embu", "names": {"ISO3166-2": "KE-06", "name": "Embu", "name:ceb": "Embu", "name:de": "Embu", "name:en": "Embu", "name:es": "Embu", "name:fa": "شهرستان امبو", "name:fi": "Embun", "name:fr": "Embu", "name:id": "Embu", "name:it": "Embu", "name:ja": "エンブ", "name:ko": "엠부현", "name:nan": "Embu", "name:nl": "Embu", "name:no": "Embu", "name:pl": "Embu", "name:pt": "Embu", "name:sv": "Embu", "name:sw": "Embu", "name:ur": "عمبو", "name:vi": "Embu", "name:zh": "恩布郡", "name:zu": "Embu"}, "addresstags": {"continent": "Africa", "country": "KE"}, "housenumber": null, "calculated_postcode": null, "country_code": "ke", "indexed_date": "2022-05-19T11:13:56+00:00", "importance": 0.4093119917908739, "calculated_importance": 0.4093119917908739, "extratags": {"CONST_CODE": "64", "CONSTITUEN": "RUNYENJES", "COUNTY_COD": "14", "COUNTY_NAM": "EMBU", "ID_": "3567", "OBJECTID": "15", "Shape_Area": "0.22934267389", "Shape_Leng": "3.20577801845", "wikidata": "Q1335242", "wikipedia": "en:Embu County"}, "calculated_wikipedia": "en:Embu_County", "icon": "https://nominatim.openstreetmap.org/ui/mapicons/poi_boundary_administrative.p.20.png", "rank_address": 8, "rank_search": 8, "isarea": true, "centroid": {"type": "Point", "coordinates": [37.6652884382665, -0.5359479]}, "geometry": {"type": "Point", "coordinates": [37.665288438, -0.5359479]}, "address": [{"localname": "Embu", "place_id": 285340588, "osm_id": 3495540, "osm_type": "R", "place_type": null, "class": "boundary", "type": "administrative", "admin_level": 4, "rank_address": 8, "distance": 0, "isaddress": true}, {"localname": "East Kenya", "place_id": 285443095, "osm_id": 9724277, "osm_type": "R", "place_type": "state", "class": "boundary", "type": "administrative", "admin_level": 3, "rank_address": 6, "distance": 1.9541228670456805e-05, "isaddress": true}, {"localname": "Kenya", "place_id": null, "osm_id": null, "osm_type": null, "place_type": null, "class": "place", "type": "country", "admin_level": null, "rank_address": 4, "distance": 0, "isaddress": true}, {"localname": "ke", "place_id": null, "osm_id": null, "osm_type": null, "place_type": null, "class": "place", "type": "country_code", "admin_level": null, "rank_address": 4, "distance": 0, "isaddress": false}]}, {"place_id": 285606557, "parent_place_id": 285121105, "osm_type": "R", "osm_id": 3495541, "category": "boundary", "type": "administrative", "admin_level": 4, "localname": "Garissa", "names": {"ISO3166-2": "KE-07", "name": "Garissa", "name:ar": "غاريسا", "name:ceb": "Garissa", "name:de": "Garissa", "name:en": "Garissa", "name:es": "Garissa", "name:fa": "گاریسا", "name:fr": "Garissa", "name:id": "Garissa", "name:it": "Garissa", "name:ja": "ガリッサ", "name:ko": "가리사현", "name:nan": "Garissa", "name:nl": "Garissa", "name:no": "Garissa", "name:pl": "Garissa", "name:pt": "Garissa", "name:ru": "Гарисса", "name:sv": "Garissa", "name:sw": "Garissa", "name:ur": "گاریسا", "name:vi": "Garissa", "name:zh": "加里薩郡", "name:zu": "Garissa"}, "addresstags": [], "housenumber": null, "calculated_postcode": null, "country_code": "ke", "indexed_date": "2022-05-17T13:14:43+00:00", "importance": 0, "calculated_importance": 0.55, "extratags": {"wikidata": "Q1494292", "wikipedia": "en:Garissa County"}, "calculated_wikipedia": null, "icon": "https://nominatim.openstreetmap.org/ui/mapicons/poi_boundary_administrative.p.20.png", "rank_address": 8, "rank_search": 8, "isarea": true, "centroid": {"type": "Point", "coordinates": [40.356386905787105, -0.52360305]}, "geometry": {"type": "Point", "coordinates": [40.356386906, -0.52360305]}, "address": [{"localname": "Garissa", "place_id": 285606557, "osm_id": 3495541, "osm_type": "R", "place_type": null, "class": "boundary", "type": "administrative", "admin_level": 4, "rank_address": 8, "distance": 0, "isaddress": true}, {"localname": "Northeast Kenya", "place_id": 285121105, "osm_id": 9721622, "osm_type": "R", "place_type": "state", "class": "boundary", "type": "administrative", "admin_level": 3, "rank_address": 6, "distance": 1.5850964729636037e-05, "isaddress": true}, {"localname": "Kenya", "place_id": null, "osm_id": null, "osm_type": null, "place_type": null, "class": "place", "type": "country", "admin_level": null, "rank_address": 4, "distance": 0, "isaddress": true}, {"localname": "ke", "place_id": null, "osm_id": null, "osm_type": null, "place_type": null, "class": "place", "type": "country_code", "admin_level": null, "rank_address": 4, "distance": 0, "isaddress": false}]}, {"place_id": 285451112, "parent_place_id": 285085359, "osm_type": "R", "osm_id": 3486017, "category": "boundary", "type": "administrative", "admin_level": 4, "localname": "Homa Bay County", "names": {"ISO3166-2": "KE-08", "name": "Homa Bay", "name:ceb": "Homa Bay", "name:de": "Homa Bay County", "name:en": "Homa Bay County", "name:es": "Condado de Homa Bay", "name:fa": "شهرستان خلیج هوما", "name:fr": "Comté de Homa Bay", "name:id": "County Homa Bay", "name:it": "Contea di Homa Bay", "name:ja": "ホマ・ベイ", "name:ko": "호마베이현", "name:nan": "Homa Bay Kūn", "name:nl": "Homa Bay County", "name:no": "Homa Bay fylke", "name:pl": "Homa Bay", "name:ru": "Хома Бэй", "name:sv": "Homa Bay", "name:sw": "Kaunti ya Homa Bay", "name:ur": "ہوما بے کاؤنٹی", "name:vi": "Homa Bay", "name:zh": "霍馬灣郡", "name:zu": "Homa Bay County", "ref": "43"}, "addresstags": [], "housenumber": null, "calculated_postcode": null, "country_code": "ke", "indexed_date": "2022-05-23T12:54:14+00:00", "importance": 0.41336001806577366, "calculated_importance": 0.41336001806577366, "extratags": {"admin_type:KE": "county", "border_type": "county", "land_area": "administrative", "wikidata": "Q1625834", "wikipedia": "en:Homa Bay County"}, "calculated_wikipedia": "en:Homa_Bay_County", "icon": "https://nominatim.openstreetmap.org/ui/mapicons/poi_boundary_administrative.p.20.png", "rank_address": 8, "rank_search": 8, "isarea": true, "centroid": {"type": "Point", "coordinates": [34.31878185590796, -0.56396015]}, "geometry": {"type": "Point", "coordinates": [34.318781856, -0.56396015]}, "address": [{"localname": "Homa Bay County", "place_id": 285451112, "osm_id": 3486017, "osm_type": "R", "place_type": null, "class": "boundary", "type": "administrative", "admin_level": 4, "rank_address": 8, "distance": 0, "isaddress": true}, {"localname": "Nyanza", "place_id": 285085359, "osm_id": 9721653, "osm_type": "R", "place_type": null, "class": "boundary", "type": "administrative", "admin_level": 3, "rank_address": 6, "distance": 1.7116526690402288e-06, "isaddress": true}, {"localname": "Kenya", "place_id": null, "osm_id": null, "osm_type": null, "place_type": null, "class": "place", "type": "country", "admin_level": null, "rank_address": 4, "distance": 0, "isaddress": true}, {"localname": "ke", "place_id": null, "osm_id": null, "osm_type": null, "place_type": null, "class": "place", "type": "country_code", "admin_level": null, "rank_address": 4, "distance": 0, "isaddress": false}]}, {"place_id": 285505421, "parent_place_id": 285443095, "osm_type": "R", "osm_id": 3495542, "category": "boundary", "type": "administrative", "admin_level": 4, "localname": "Isiolo", "names": {"ISO3166-2": "KE-09", "name": "Isiolo", "name:ceb": "Isiolo", "name:de": "Isiolo", "name:en": "Isiolo", "name:es": "Isiolo", "name:fa": "شهرستان ایسیولو", "name:fr": "Isiolo", "name:id": "Isiolo", "name:it": "Isiolo", "name:ja": "イシオロ", "name:ko": "이시올로현", "name:nan": "Isiolo", "name:nl": "Isiolo", "name:no": "Isiolo", "name:pl": "Isiolo", "name:ru": "Исиоло", "name:sv": "Isiolo", "name:sw": "Isiolo", "name:ur": "اسیولو کاؤنٹی", "name:vi": "Isiolo", "name:zh": "伊希約洛郡", "name:zu": "Isiolo"}, "addresstags": [], "housenumber": null, "calculated_postcode": null, "country_code": "ke", "indexed_date": "2022-05-19T11:36:12+00:00", "importance": 0.41343531728023775, "calculated_importance": 0.41343531728023775, "extratags": {"CONST_CODE": "49", "CONSTITUEN": "ISIOLO NORTH", "COUNTY_COD": "11", "wikidata": "Q1499046", "wikipedia": "en:Isiolo County"}, "calculated_wikipedia": "en:Isiolo_County", "icon": "https://nominatim.openstreetmap.org/ui/mapicons/poi_boundary_administrative.p.20.png", "rank_address": 8, "rank_search": 8, "isarea": true, "centroid": {"type": "Point", "coordinates": [38.74789538540634, 1.0060600499999999]}, "geometry": {"type": "Point", "coordinates": [38.747895385, 1.00606005]}, "address": [{"localname": "Isiolo", "place_id": 285505421, "osm_id": 3495542, "osm_type": "R", "place_type": null, "class": "boundary", "type": "administrative", "admin_level": 4, "rank_address": 8, "distance": 0, "isaddress": true}, {"localname": "East Kenya", "place_id": 285443095, "osm_id": 9724277, "osm_type": "R", "place_type": "state", "class": "boundary", "type": "administrative", "admin_level": 3, "rank_address": 6, "distance": 2.256710836537298e-06, "isaddress": true}, {"localname": "Kenya", "place_id": null, "osm_id": null, "osm_type": null, "place_type": null, "class": "place", "type": "country", "admin_level": null, "rank_address": 4, "distance": 0, "isaddress": true}, {"localname": "ke", "place_id": null, "osm_id": null, "osm_type": null, "place_type": null, "class": "place", "type": "country_code", "admin_level": null, "rank_address": 4, "distance": 0, "isaddress": false}]}, {"place_id": 285519126, "parent_place_id": 0, "osm_type": "R", "osm_id": 3486020, "category": "boundary", "type": "administrative", "admin_level": 4, "localname": "Kajiado County", "names": {"ISO3166-2": "KE-10", "name": "Kajiado", "name:ceb": "Kajiado", "name:de": "Kajiado", "name:en": "Kajiado County", "name:es": "Condado de Kajiado", "name:fa": "شهرستان کاجیادو", "name:fr": "Comté de Kajiado", "name:id": "County Kajiado", "name:it": "Contea di Kajiado", "name:ja": "カジアド", "name:ko": "카지아도현", "name:nan": "Kajiado Kūn", "name:nl": "Kajiado County", "name:no": "Kajiado fylke", "name:pl": "Kajiado", "name:pt": "Distrito de Kajiado", "name:sv": "Kajiado", "name:sw": "Kaunti ya Kajiado", "name:uk": "Каджіадо", "name:ur": "کاجیادو کاؤنٹی", "name:vi": "Kajiado", "name:zh": "卡耶亞多郡", "name:zu": "Kajiado County"}, "addresstags": {"continent": "Africa", "country": "KE"}, "housenumber": null, "calculated_postcode": null, "country_code": "ke", "indexed_date": "2022-05-17T10:33:48+00:00", "importance": 0.4232897416536588, "calculated_importance": 0.4232897416536588, "extratags": {"wikidata": "Q285072", "wikipedia": "en:Kajiado County"}, "calculated_wikipedia": "en:Kajiado_County", "icon": "https://nominatim.openstreetmap.org/ui/mapicons/poi_boundary_administrative.p.20.png", "rank_address": 8, "rank_search": 8, "isarea": true, "centroid": {"type": "Point", "coordinates": [36.78625503675998, -2.12171705]}, "geometry": {"type": "Point", "coordinates": [36.786255037, -2.12171705]}, "address": [{"localname": "Kajiado County", "place_id": 285519126, "osm_id": 3486020, "osm_type": "R", "place_type": null, "class": "boundary", "type": "administrative", "admin_level": 4, "rank_address": 8, "distance": 0, "isaddress": true}, {"localname": "Kenya", "place_id": null, "osm_id": null, "osm_type": null, "place_type": null, "class": "place", "type": "country", "admin_level": null, "rank_address": 4, "distance": 0, "isaddress": true}, {"localname": "ke", "place_id": null, "osm_id": null, "osm_type": null, "place_type": null, "class": "place", "type": "country_code", "admin_level": null, "rank_address": 4, "distance": 0, "isaddress": false}]}, {"place_id": 285312910, "parent_place_id": 285792318, "osm_type": "R", "osm_id": 3495543, "category": "boundary", "type": "administrative", "admin_level": 4, "localname": "Kakamega County", "names": {"ISO3166-2": "KE-11", "name": "Kakamega", "name:ceb": "Kakamega", "name:de": "Kakamega County", "name:en": "Kakamega County", "name:es": "Condado de Kakamega", "name:fa": "شهرستان کاکامگا", "name:fi": "Kakamegan piirikunta", "name:fr": "Comté de Kakamega", "name:id": "County Kakamega", "name:it": "Contea di Kakamega", "name:ja": "カカメガ", "name:ko": "카카메가현", "name:nan": "Kakamega Kūn", "name:nl": "Kakamega County", "name:no": "Kakamega fylke", "name:pl": "Kakamega", "name:sv": "Kakamega", "name:sw": "Kaunti ya Kakamega", "name:ur": "کاکامیگا کاؤنٹی", "name:vi": "Kakamega", "name:zh": "卡卡梅加郡", "name:zu": "Kakamega County"}, "addresstags": [], "housenumber": null, "calculated_postcode": null, "country_code": "ke", "indexed_date": "2022-05-13T07:15:39+00:00", "importance": 0.4096329945965867, "calculated_importance": 0.4096329945965867, "extratags": {"CONST_CODE": "209", "CONSTITUEN": "SHINYALU", "COUNTY_COD": "37", "COUNTY_NAM": "KAKAMEGA", "id": "1819", "OBJECTID": "36", "Shape_Area": "0.24446094982", "Shape_Leng": "3.81209259444", "wikidata": "Q1721867", "wikipedia": "en:Kakamega County"}, "calculated_wikipedia": "en:Kakamega_County", "icon": "https://nominatim.openstreetmap.org/ui/mapicons/poi_boundary_administrative.p.20.png", "rank_address": 8, "rank_search": 8, "isarea": true, "centroid": {"type": "Point", "coordinates": [34.801548861634615, 0.4957104]}, "geometry": {"type": "Point", "coordinates": [34.801548862, 0.4957104]}, "address": [{"localname": "Kakamega County", "place_id": 285312910, "osm_id": 3495543, "osm_type": "R", "place_type": null, "class": "boundary", "type": "administrative", "admin_level": 4, "rank_address": 8, "distance": 0, "isaddress": true}, {"localname": "West Kenya", "place_id": 285792318, "osm_id": 9721837, "osm_type": "R", "place_type": null, "class": "boundary", "type": "administrative", "admin_level": 3, "rank_address": 6, "distance": 3.133692047774714e-06, "isaddress": true}, {"localname": "Kenya", "place_id": null, "osm_id": null, "osm_type": null, "place_type": null, "class": "place", "type": "country", "admin_level": null, "rank_address": 4, "distance": 0, "isaddress": true}, {"localname": "ke", "place_id": null, "osm_id": null, "osm_type": null, "place_type": null, "class": "place", "type": "country_code", "admin_level": null, "rank_address": 4, "distance": 0, "isaddress": false}]}, {"place_id": 284764265, "parent_place_id": 0, "osm_type": "R", "osm_id": 3486288, "category": "boundary", "type": "administrative", "admin_level": 4, "localname": "Kericho County", "names": {"ISO3166-2": "KE-12", "name": "Kericho", "name:ceb": "Kericho", "name:de": "Kericho County", "name:en": "Kericho County", "name:es": "Condado de Kericho", "name:fa": "شهرستان کریچو", "name:fi": "Kerichon piirikunta", "name:id": "County Kericho", "name:it": "Contea di Kericho", "name:ja": "ケリチョ", "name:ko": "케리초현", "name:nan": "Kericho Kūn", "name:nl": "Kericho County", "name:no": "Kericho fylke", "name:pl": "Kericho", "name:sv": "Kericho", "name:sw": "Kaunti ya Kericho", "name:ur": "کیریچو کاؤنٹی", "name:vi": "Kericho", "name:zh": "凱里喬郡", "name:zu": "Kericho County"}, "addresstags": [], "housenumber": null, "calculated_postcode": null, "country_code": "ke", "indexed_date": "2022-05-13T06:21:49+00:00", "importance": 0.4003188007738509, "calculated_importance": 0.4003188007738509, "extratags": {"CONST_CODE": "192", "CONSTITUEN": "BELGUT", "COUNTY_COD": "35", "COUNTY_NAM": "KERICHO", "id": "3434", "OBJECTID": "35", "Shape_Area": "0.20964797953", "Shape_Leng": "3.4293911554", "wikidata": "Q1739252", "wikipedia": "en:Kericho County"}, "calculated_wikipedia": "en:Kericho_County", "icon": "https://nominatim.openstreetmap.org/ui/mapicons/poi_boundary_administrative.p.20.png", "rank_address": 8, "rank_search": 8, "isarea": true, "centroid": {"type": "Point", "coordinates": [35.226127597753845, -0.32099679999999997]}, "geometry": {"type": "Point", "coordinates": [35.226127598, -0.3209968]}, "address": [{"localname": "Kericho County", "place_id": 284764265, "osm_id": 3486288, "osm_type": "R", "place_type": null, "class": "boundary", "type": "administrative", "admin_level": 4, "rank_address": 8, "distance": 0, "isaddress": true}, {"localname": "Kenya", "place_id": null, "osm_id": null, "osm_type": null, "place_type": null, "class": "place", "type": "country", "admin_level": null, "rank_address": 4, "distance": 0, "isaddress": true}, {"localname": "ke", "place_id": null, "osm_id": null, "osm_type": null, "place_type": null, "class": "place", "type": "country_code", "admin_level": null, "rank_address": 4, "distance": 0, "isaddress": false}]}, {"place_id": 284354817, "parent_place_id": 285205582, "osm_type": "R", "osm_id": 3495544, "category": "boundary", "type": "administrative", "admin_level": 4, "localname": "Kiambu", "names": {"alt_name:de": "Kiambu County", "alt_name:en": "Kiambu County", "alt_name:fr": "Comté de Kiambu", "ISO3166-2": "KE-13", "name": "Kiambu", "name:ceb": "Kiambu", "name:de": "Kiambu", "name:en": "Kiambu", "name:es": "Condado de Kiambu", "name:fa": "شهرستان کیامبو", "name:fi": "Kiambun piirikunta", "name:fr": "Kiambu", "name:id": "County Kiambu", "name:it": "Contea di Kiambu", "name:ja": "キアンブ", "name:ko": "키암부현", "name:nan": "Kiambu Kūn", "name:nl": "Kiambu County", "name:no": "Kiambu fylke", "name:pl": "Kiambu", "name:sv": "Kiambu", "name:sw": "Kaunti ya Kiambu", "name:ur": "کیامبو کاؤنٹی", "name:vi": "Kiambu", "name:zh": "基安布郡", "name:zu": "Kiambu County"}, "addresstags": {"country": "KE"}, "housenumber": null, "calculated_postcode": null, "country_code": "ke", "indexed_date": "2022-05-18T12:17:25+00:00", "importance": 0.4128303318151943, "calculated_importance": 0.4128303318151943, "extratags": {"wikidata": "Q2575594", "wikipedia": "en:Kiambu County"}, "calculated_wikipedia": "en:Kiambu_County", "icon": "https://nominatim.openstreetmap.org/ui/mapicons/poi_boundary_administrative.p.20.png", "rank_address": 8, "rank_search": 8, "isarea": true, "centroid": {"type": "Point", "coordinates": [36.815686702129064, -1.03207695]}, "geometry": {"type": "Point", "coordinates": [36.815686702, -1.03207695]}, "address": [{"localname": "Kiambu", "place_id": 284354817, "osm_id": 3495544, "osm_type": "R", "place_type": null, "class": "boundary", "type": "administrative", "admin_level": 4, "rank_address": 8, "distance": 0, "isaddress": true}, {"localname": "Central Kenya", "place_id": 285205582, "osm_id": 9721572, "osm_type": "R", "place_type": null, "class": "boundary", "type": "administrative", "admin_level": 3, "rank_address": 6, "distance": 4.736297269154817e-06, "isaddress": true}, {"localname": "Kenya", "place_id": null, "osm_id": null, "osm_type": null, "place_type": null, "class": "place", "type": "country", "admin_level": null, "rank_address": 4, "distance": 0, "isaddress": true}, {"localname": "ke", "place_id": null, "osm_id": null, "osm_type": null, "place_type": null, "class": "place", "type": "country_code", "admin_level": null, "rank_address": 4, "distance": 0, "isaddress": false}]}, {"place_id": 284294311, "parent_place_id": 285741286, "osm_type": "R", "osm_id": 3495545, "category": "boundary", "type": "administrative", "admin_level": 4, "localname": "Kilifi County", "names": {"ISO3166-2": "KE-14", "name": "Kilifi", "name:ceb": "Kilifi", "name:de": "Kilifi County", "name:en": "Kilifi County", "name:es": "Condado de Kilifi", "name:fa": "شهرستان کیلیفی", "name:fi": "Kilifin piirikunta", "name:fr": "Comté de Kilifi", "name:id": "County Kilifi", "name:it": "Contea di Kilifi", "name:ja": "キリフィ", "name:ko": "킬리피현", "name:nan": "Kilifi Kūn", "name:nl": "Kilifi County", "name:no": "Kilifi fylke", "name:pl": "Kilifi", "name:sv": "Kilifi", "name:sw": "Kaunti ya Kilifi", "name:ur": "کیلیفی کاؤنٹی", "name:vi": "Kilifi", "name:zh": "基利菲郡", "name:zu": "Kilifi County"}, "addresstags": [], "housenumber": null, "calculated_postcode": null, "country_code": "ke", "indexed_date": "2022-05-19T11:52:28+00:00", "importance": 0.4178628547155853, "calculated_importance": 0.4178628547155853, "extratags": {"CONST_CODE": "13", "CONSTITUEN": "KALOLENI", "COUNTY_COD": "3", "COUNTY_NAM": "KILIFI", "id": "6731", "OBJECTID": "4", "Shape_Area": "1.02533838151", "Shape_Leng": "5.33308007101", "wikidata": "Q1741307", "wikipedia": "en:Kilifi County"}, "calculated_wikipedia": "en:Kilifi_County", "icon": "https://nominatim.openstreetmap.org/ui/mapicons/poi_boundary_administrative.p.20.png", "rank_address": 8, "rank_search": 8, "isarea": true, "centroid": {"type": "Point", "coordinates": [39.67507159193717, -3.15073925]}, "geometry": {"type": "Point", "coordinates": [39.675071592, -3.15073925]}, "address": [{"localname": "Kilifi County", "place_id": 284294311, "osm_id": 3495545, "osm_type": "R", "place_type": null, "class": "boundary", "type": "administrative", "admin_level": 4, "rank_address": 8, "distance": 0, "isaddress": true}, {"localname": "Coastal Kenya", "place_id": 285741286, "osm_id": 9721636, "osm_type": "R", "place_type": null, "class": "boundary", "type": "administrative", "admin_level": 3, "rank_address": 6, "distance": 7.563265009120512e-06, "isaddress": true}, {"localname": "Kenya", "place_id": null, "osm_id": null, "osm_type": null, "place_type": null, "class": "place", "type": "country", "admin_level": null, "rank_address": 4, "distance": 0, "isaddress": true}, {"localname": "ke", "place_id": null, "osm_id": null, "osm_type": null, "place_type": null, "class": "place", "type": "country_code", "admin_level": null, "rank_address": 4, "distance": 0, "isaddress": false}]}, {"place_id": 285133059, "parent_place_id": 285205582, "osm_type": "R", "osm_id": 3495546, "category": "boundary", "type": "administrative", "admin_level": 4, "localname": "Kirinyaga County", "names": {"alt_name:fr": "Comté de Kirinyaga", "ISO3166-2": "KE-15", "name": "Kirinyaga", "name:ceb": "Kirinyaga", "name:de": "Kirinyaga", "name:en": "Kirinyaga County", "name:es": "Condado de Kirinyaga", "name:fa": "شهرستان کیرینیاگا", "name:fi": "Kirinyagan piirikunta", "name:fr": "Kirinyaga", "name:id": "County Kirinyaga", "name:it": "Contea di Kirinyaga", "name:ja": "キリニャガ", "name:ko": "키리니아가현", "name:nan": "Kirinyaga Kūn", "name:nl": "Kirinyaga County", "name:no": "Kirinyaga fylke", "name:pl": "Kirinyaga", "name:pt": "Quiriniaga", "name:sv": "Kirinyaga", "name:sw": "Kaunti ya Kirinyaga", "name:ur": "کیرینیاگا کاؤنٹی", "name:vi": "Kirinyaga", "name:zh": "基里尼亞加郡", "name:zu": "Kirinyaga County"}, "addresstags": {"continent": "Africa", "country": "KE"}, "housenumber": null, "calculated_postcode": null, "country_code": "ke", "indexed_date": "2022-05-17T13:14:43+00:00", "importance": 0.3965765408267368, "calculated_importance": 0.3965765408267368, "extratags": {"CONST_CODE": "101", "CONSTITUEN": "GICHUGU", "COUNTY_COD": "20", "COUNTY_NAM": "KIRINYAGA", "ID_": "3965", "OBJECTID": "20", "Shape_Area": "0.11984024832", "Shape_Leng": "1.79453434734", "wikidata": "Q2230311", "wikipedia": "en:Kirinyaga County"}, "calculated_wikipedia": "en:Kirinyaga_County", "icon": "https://nominatim.openstreetmap.org/ui/mapicons/poi_boundary_administrative.p.20.png", "rank_address": 8, "rank_search": 8, "isarea": true, "centroid": {"type": "Point", "coordinates": [37.30276810393241, -0.46887805]}, "geometry": {"type": "Point", "coordinates": [37.302768104, -0.46887805]}, "address": [{"localname": "Kirinyaga County", "place_id": 285133059, "osm_id": 3495546, "osm_type": "R", "place_type": null, "class": "boundary", "type": "administrative", "admin_level": 4, "rank_address": 8, "distance": 0, "isaddress": true}, {"localname": "Central Kenya", "place_id": 285205582, "osm_id": 9721572, "osm_type": "R", "place_type": null, "class": "boundary", "type": "administrative", "admin_level": 3, "rank_address": 6, "distance": 3.524968818021587e-06, "isaddress": true}, {"localname": "Kenya", "place_id": null, "osm_id": null, "osm_type": null, "place_type": null, "class": "place", "type": "country", "admin_level": null, "rank_address": 4, "distance": 0, "isaddress": true}, {"localname": "ke", "place_id": null, "osm_id": null, "osm_type": null, "place_type": null, "class": "place", "type": "country_code", "admin_level": null, "rank_address": 4, "distance": 0, "isaddress": false}]}, {"place_id": 284331506, "parent_place_id": 285085359, "osm_type": "R", "osm_id": 3338140, "category": "boundary", "type": "administrative", "admin_level": 4, "localname": "Kisii County", "names": {"ISO3166-2": "KE-16", "name": "Kisii", "name:ceb": "Kisii", "name:de": "Kisii County", "name:en": "Kisii County", "name:es": "Condado de Kisii", "name:fa": "شهرستان کیسی", "name:fi": "Kisiin piirikunta", "name:fr": "Comté de Kisii", "name:id": "County Kisii", "name:it": "Contea di Kisii", "name:ja": "キシイ", "name:ko": "키시현", "name:nan": "Kisii Kūn", "name:nl": "Kisii County", "name:no": "Kisii fylke", "name:pl": "Kisii", "name:pt": "Quisi", "name:sv": "Kisii", "name:sw": "Kaunti ya Kisii", "name:ur": "کیسیی کاؤنٹی", "name:vi": "Kisii", "name:zh": "基西郡", "name:zu": "Kisii County", "ref": "45"}, "addresstags": [], "housenumber": null, "calculated_postcode": null, "country_code": "ke", "indexed_date": "2022-04-18T13:13:28+00:00", "importance": 0, "calculated_importance": 0.55, "extratags": {"admin_type:KE": "county", "border_type": "county", "land_area": "administrative", "wikidata": "Q1743730", "wikipedia": "en:Kisii County"}, "calculated_wikipedia": null, "icon": "https://nominatim.openstreetmap.org/ui/mapicons/poi_boundary_administrative.p.20.png", "rank_address": 8, "rank_search": 8, "isarea": true, "centroid": {"type": "Point", "coordinates": [34.75398551201732, -0.73894255]}, "geometry": {"type": "Point", "coordinates": [34.753985512, -0.73894255]}, "address": [{"localname": "Kisii County", "place_id": 284331506, "osm_id": 3338140, "osm_type": "R", "place_type": null, "class": "boundary", "type": "administrative", "admin_level": 4, "rank_address": 8, "distance": 0, "isaddress": true}, {"localname": "Nyanza", "place_id": 285085359, "osm_id": 9721653, "osm_type": "R", "place_type": null, "class": "boundary", "type": "administrative", "admin_level": 3, "rank_address": 6, "distance": 0.33190755695044566, "isaddress": true}, {"localname": "Kenya", "place_id": null, "osm_id": null, "osm_type": null, "place_type": null, "class": "place", "type": "country", "admin_level": null, "rank_address": 4, "distance": 0, "isaddress": true}, {"localname": "ke", "place_id": null, "osm_id": null, "osm_type": null, "place_type": null, "class": "place", "type": "country_code", "admin_level": null, "rank_address": 4, "distance": 0, "isaddress": false}]}, {"place_id": 284726511, "parent_place_id": 285085359, "osm_type": "R", "osm_id": 3486289, "category": "boundary", "type": "administrative", "admin_level": 4, "localname": "Kisumu County", "names": {"ISO3166-2": "KE-17", "name": "Kisumu", "name:ar": "منطقة كيزيمو", "name:ceb": "Kisumu", "name:de": "Kisumu County", "name:en": "Kisumu County", "name:es": "Condado de Kisumu", "name:fa": "شهرستان کیسومو", "name:fr": "Comté de Kisumu", "name:id": "County Kisumu", "name:it": "Contea di Kisumu", "name:ja": "キスム", "name:ko": "키수무현", "name:nan": "Kisumu Kūn", "name:nl": "Kisumu County", "name:no": "Kisumu fylke", "name:pl": "Kisumu", "name:pt": "Quisumu", "name:sv": "Kisumu", "name:sw": "Kaunti ya Kisumu", "name:ur": "کسیمو کاؤنٹی", "name:vi": "Kisumu", "name:zh": "基蘇木郡", "name:zu": "Kisumu County"}, "addresstags": [], "housenumber": null, "calculated_postcode": null, "country_code": "ke", "indexed_date": "2022-04-19T05:35:10+00:00", "importance": 0.4109789065133428, "calculated_importance": 0.4109789065133428, "extratags": {"wikidata": "Q1743809", "wikipedia": "en:Kisumu County"}, "calculated_wikipedia": "en:Kisumu_County", "icon": "https://nominatim.openstreetmap.org/ui/mapicons/poi_boundary_administrative.p.20.png", "rank_address": 8, "rank_search": 8, "isarea": true, "centroid": {"type": "Point", "coordinates": [34.7778573178751, -0.197126]}, "geometry": {"type": "Point", "coordinates": [34.777857318, -0.197126]}, "address": [{"localname": "Kisumu County", "place_id": 284726511, "osm_id": 3486289, "osm_type": "R", "place_type": null, "class": "boundary", "type": "administrative", "admin_level": 4, "rank_address": 8, "distance": 0, "isaddress": true}, {"localname": "Nyanza", "place_id": 285085359, "osm_id": 9721653, "osm_type": "R", "place_type": null, "class": "boundary", "type": "administrative", "admin_level": 3, "rank_address": 6, "distance": 0.4488424423202258, "isaddress": true}, {"localname": "Kenya", "place_id": null, "osm_id": null, "osm_type": null, "place_type": null, "class": "place", "type": "country", "admin_level": null, "rank_address": 4, "distance": 0, "isaddress": true}, {"localname": "ke", "place_id": null, "osm_id": null, "osm_type": null, "place_type": null, "class": "place", "type": "country_code", "admin_level": null, "rank_address": 4, "distance": 0, "isaddress": false}]}, {"place_id": 285053331, "parent_place_id": 285443095, "osm_type": "R", "osm_id": 3495547, "category": "boundary", "type": "administrative", "admin_level": 4, "localname": "Kitui County", "names": {"ISO3166-2": "KE-18", "name": "Kitui", "name:ceb": "Kitui", "name:da": "Kitui", "name:de": "Kitui County", "name:en": "Kitui County", "name:es": "Condado de Kitui", "name:fa": "شهرستان کیتوی", "name:fi": "Kituin piirikunta", "name:fr": "Comté de Kitui", "name:id": "County Kitui", "name:it": "Contea di Kitui", "name:ja": "キツイ", "name:ko": "키투이현", "name:nan": "Kitui Kūn", "name:nl": "Kitui County", "name:no": "Kitui fylke", "name:pl": "Kitui", "name:sv": "Kitui", "name:sw": "Kaunti ya Kitui", "name:ur": "کیتوئی کاؤنٹی", "name:vi": "Kitui", "name:zh": "基圖伊郡", "name:zu": "Kitui County"}, "addresstags": [], "housenumber": null, "calculated_postcode": null, "country_code": "ke", "indexed_date": "2022-05-17T10:33:48+00:00", "importance": 0.4239912043659237, "calculated_importance": 0.4239912043659237, "extratags": {"CONST_CODE": "73", "CONSTITUEN": "KITUI EAST", "COUNTY_COD": "15", "COUNTY_NAM": "KITUI", "ID_": "5251", "OBJECTID": "16", "Shape_Area": "2.47528086643", "Shape_Leng": "8.74448750335", "wikidata": "Q1722597", "wikipedia": "en:Kitui County"}, "calculated_wikipedia": "en:Kitui_County", "icon": "https://nominatim.openstreetmap.org/ui/mapicons/poi_boundary_administrative.p.20.png", "rank_address": 8, "rank_search": 8, "isarea": true, "centroid": {"type": "Point", "coordinates": [38.372811654368775, -1.5642219499999999]}, "geometry": {"type": "Point", "coordinates": [38.372811654, -1.56422195]}, "address": [{"localname": "Kitui County", "place_id": 285053331, "osm_id": 3495547, "osm_type": "R", "place_type": null, "class": "boundary", "type": "administrative", "admin_level": 4, "rank_address": 8, "distance": 0, "isaddress": true}, {"localname": "East Kenya", "place_id": 285443095, "osm_id": 9724277, "osm_type": "R", "place_type": "state", "class": "boundary", "type": "administrative", "admin_level": 3, "rank_address": 6, "distance": 2.7525470572300685e-05, "isaddress": true}, {"localname": "Kenya", "place_id": null, "osm_id": null, "osm_type": null, "place_type": null, "class": "place", "type": "country", "admin_level": null, "rank_address": 4, "distance": 0, "isaddress": true}, {"localname": "ke", "place_id": null, "osm_id": null, "osm_type": null, "place_type": null, "class": "place", "type": "country_code", "admin_level": null, "rank_address": 4, "distance": 0, "isaddress": false}]}, {"place_id": 285171424, "parent_place_id": 285741286, "osm_type": "R", "osm_id": 3495548, "category": "boundary", "type": "administrative", "admin_level": 4, "localname": "Kwale", "names": {"ISO3166-2": "KE-19", "name": "Kwale", "name:ceb": "Kwale", "name:de": "Kwale", "name:en": "Kwale", "name:es": "Kwale", "name:fr": "Kwale", "name:id": "Kwale", "name:it": "Kwale", "name:ja": "クワレ", "name:ko": "콸레현", "name:nan": "Kwale Kūn", "name:nl": "Kwale", "name:no": "Kwale", "name:pl": "Kwale", "name:sv": "Kwale", "name:sw": "Kwale", "name:ur": "کوالے کاؤنٹی", "name:vi": "Kwale", "name:zh": "夸勒郡", "name:zu": "Kwale"}, "addresstags": [], "housenumber": null, "calculated_postcode": null, "country_code": "ke", "indexed_date": "2022-05-19T11:56:45+00:00", "importance": 0.41911079745041496, "calculated_importance": 0.41911079745041496, "extratags": {"CONST_CODE": "10", "CONSTITUEN": "KINANGO", "COUNTY_COD": "19", "COUNTY_NAM": "KWALE", "ID_": "6600", "OBJECTID": "3", "Shape_Area": "0.75826601303", "Shape_Leng": "4.28418177601", "wikidata": "Q952571", "wikipedia": "en:Kwale County"}, "calculated_wikipedia": "en:Kwale_County", "icon": "https://nominatim.openstreetmap.org/ui/mapicons/poi_boundary_administrative.p.20.png", "rank_address": 8, "rank_search": 8, "isarea": true, "centroid": {"type": "Point", "coordinates": [39.105094975232994, -4.1836067]}, "geometry": {"type": "Point", "coordinates": [39.105094975, -4.1836067]}, "address": [{"localname": "Kwale", "place_id": 285171424, "osm_id": 3495548, "osm_type": "R", "place_type": null, "class": "boundary", "type": "administrative", "admin_level": 4, "rank_address": 8, "distance": 0, "isaddress": true}, {"localname": "Coastal Kenya", "place_id": 285741286, "osm_id": 9721636, "osm_type": "R", "place_type": null, "class": "boundary", "type": "administrative", "admin_level": 3, "rank_address": 6, "distance": 1.9058267382011903e-05, "isaddress": true}, {"localname": "Kenya", "place_id": null, "osm_id": null, "osm_type": null, "place_type": null, "class": "place", "type": "country", "admin_level": null, "rank_address": 4, "distance": 0, "isaddress": true}, {"localname": "ke", "place_id": null, "osm_id": null, "osm_type": null, "place_type": null, "class": "place", "type": "country_code", "admin_level": null, "rank_address": 4, "distance": 0, "isaddress": false}]}, {"place_id": 297991629, "parent_place_id": 0, "osm_type": "R", "osm_id": 3495549, "category": "boundary", "type": "administrative", "admin_level": 4, "localname": "Laikipia County", "names": {"ISO3166-2": "KE-20", "name": "Laikipia", "name:ceb": "Laikipia", "name:de": "Laikipia County", "name:en": "Laikipia County", "name:es": "Condado de Laikipia", "name:fa": "شهرستان لایکیپیا", "name:fr": "Comté de Laikipia", "name:id": "County Laikipia", "name:it": "Contea di Laikipia", "name:ja": "ライキピア", "name:ko": "라이키피아현", "name:nan": "Laikipia Kūn", "name:nl": "Laikipia County", "name:no": "Laikipia fylke", "name:pl": "Laikipia", "name:sv": "Laikipia", "name:sw": "Kaunti ya Laikipia", "name:ur": "لائکی پیا کاؤنٹی", "name:vi": "Laikipia", "name:zh": "萊基皮亞郡", "name:zu": "Laikipia County"}, "addresstags": [], "housenumber": null, "calculated_postcode": null, "country_code": "ke", "indexed_date": "2022-07-15T23:47:39+00:00", "importance": 0.41514228392298097, "calculated_importance": 0.41514228392298097, "extratags": {"CONST_CODE": "165", "CONSTITUEN": "LAIKIPIA NORTH", "COUNTY_COD": "31", "COUNTY_NAM": "Laikipia", "id": "1416", "OBJECTID": "30", "Shape_Area": "0.77470766941", "Shape_Leng": "5.22280558966", "wikidata": "Q1800699"}, "calculated_wikipedia": "en:Laikipia_County", "icon": "https://nominatim.openstreetmap.org/ui/mapicons/poi_boundary_administrative.p.20.png", "rank_address": 8, "rank_search": 8, "isarea": true, "centroid": {"type": "Point", "coordinates": [36.825771076829064, 0.2858452]}, "geometry": {"type": "Point", "coordinates": [36.825771077, 0.2858452]}, "address": [{"localname": "Laikipia County", "place_id": 297991629, "osm_id": 3495549, "osm_type": "R", "place_type": null, "class": "boundary", "type": "administrative", "admin_level": 4, "rank_address": 8, "distance": 0, "isaddress": true}, {"localname": "Kenya", "place_id": null, "osm_id": null, "osm_type": null, "place_type": null, "class": "place", "type": "country", "admin_level": null, "rank_address": 4, "distance": 0, "isaddress": true}, {"localname": "ke", "place_id": null, "osm_id": null, "osm_type": null, "place_type": null, "class": "place", "type": "country_code", "admin_level": null, "rank_address": 4, "distance": 0, "isaddress": false}]}, {"place_id": 285529382, "parent_place_id": 285741286, "osm_type": "R", "osm_id": 3495550, "category": "boundary", "type": "administrative", "admin_level": 4, "localname": "Lamu", "names": {"name": "Lamu"}, "addresstags": [], "housenumber": null, "calculated_postcode": null, "country_code": "ke", "indexed_date": "2021-12-14T22:30:02+00:00", "importance": 0.3395568222611624, "calculated_importance": 0.3395568222611624, "extratags": {"CONST_CODE": "22", "CONSTITUEN": "LAMU WEST", "COUNTY_COD": "5", "COUNTY_NAM": "LAMU", "ID_": "6276", "ISO3166-2": "KE-21", "OBJECTID": "6", "Shape_Area": "0.74374311266", "Shape_Leng": "3.74468915941", "wikidata": "Q1951652", "wikipedia": "de:Lamu"}, "calculated_wikipedia": "de:Lamu", "icon": "https://nominatim.openstreetmap.org/ui/mapicons/poi_boundary_administrative.p.20.png", "rank_address": 8, "rank_search": 8, "isarea": true, "centroid": {"type": "Point", "coordinates": [40.72809915263692, -2.0645208999999998]}, "geometry": {"type": "Point", "coordinates": [40.728099153, -2.0645209]}, "address": [{"localname": "Lamu", "place_id": 285529382, "osm_id": 3495550, "osm_type": "R", "place_type": null, "class": "boundary", "type": "administrative", "admin_level": 4, "rank_address": 8, "distance": 0, "isaddress": true}, {"localname": "Coastal Kenya", "place_id": 285741286, "osm_id": 9721636, "osm_type": "R", "place_type": null, "class": "boundary", "type": "administrative", "admin_level": 3, "rank_address": 6, "distance": 1.004610649839588, "isaddress": true}, {"localname": "Kenya", "place_id": null, "osm_id": null, "osm_type": null, "place_type": null, "class": "place", "type": "country", "admin_level": null, "rank_address": 4, "distance": 0, "isaddress": true}, {"localname": "ke", "place_id": null, "osm_id": null, "osm_type": null, "place_type": null, "class": "place", "type": "country_code", "admin_level": null, "rank_address": 4, "distance": 0, "isaddress": false}]}, {"place_id": 298306944, "parent_place_id": 298569054, "osm_type": "R", "osm_id": 3492707, "category": "boundary", "type": "administrative", "admin_level": 4, "localname": "Machakos County", "names": {"ISO3166-2": "KE-22", "name": "Machakos", "name:ceb": "Machakos", "name:de": "Machakos County", "name:en": "Machakos County", "name:es": "Condado de Machakos", "name:fa": "شهرستان ماچاکوس", "name:fi": "Machakosin piirikunta", "name:fr": "Comté de Machakos", "name:id": "County Machakos", "name:it": "Contea di Machakos", "name:ja": "マチャコス", "name:ko": "마차코스현", "name:nan": "Machakos Kūn", "name:nl": "Machakos County", "name:no": "Machakos fylke", "name:pl": "Machakos", "name:sv": "Machakos", "name:sw": "Kaunti ya Machakos", "name:ur": "ماچاکوس کاؤنٹی", "name:vi": "Machakos", "name:zh": "馬查科斯郡", "name:zu": "Machakos County"}, "addresstags": [], "housenumber": null, "calculated_postcode": null, "country_code": "ke", "indexed_date": "2022-07-15T23:47:40+00:00", "importance": 0.41343531728023775, "calculated_importance": 0.41343531728023775, "extratags": {"CONST_CODE": "76", "CONSTITUEN": "YATTA", "COUNTY_COD": "16", "COUNTY_NAM": "MACHAKOS", "ID_": "5438", "OBJECTID": "17", "Shape_Area": "0.49098460969", "Shape_Leng": "5.69857534187", "wikidata": "Q1882639", "wikipedia": "en:Machakos County"}, "calculated_wikipedia": "en:Machakos_County", "icon": "https://nominatim.openstreetmap.org/ui/mapicons/poi_boundary_administrative.p.20.png", "rank_address": 8, "rank_search": 8, "isarea": true, "centroid": {"type": "Point", "coordinates": [37.39526976452546, -1.27900465]}, "geometry": {"type": "Point", "coordinates": [37.395269765, -1.27900465]}, "address": [{"localname": "Machakos County", "place_id": 298306944, "osm_id": 3492707, "osm_type": "R", "place_type": null, "class": "boundary", "type": "administrative", "admin_level": 4, "rank_address": 8, "distance": 0, "isaddress": true}, {"localname": "East Kenya", "place_id": 298569054, "osm_id": 9724277, "osm_type": "R", "place_type": "state", "class": "boundary", "type": "administrative", "admin_level": 3, "rank_address": 6, "distance": 2.738247767577826e-05, "isaddress": true}, {"localname": "Kenya", "place_id": null, "osm_id": null, "osm_type": null, "place_type": null, "class": "place", "type": "country", "admin_level": null, "rank_address": 4, "distance": 0, "isaddress": true}, {"localname": "ke", "place_id": null, "osm_id": null, "osm_type": null, "place_type": null, "class": "place", "type": "country_code", "admin_level": null, "rank_address": 4, "distance": 0, "isaddress": false}]}, {"place_id": 297949584, "parent_place_id": 298569054, "osm_type": "R", "osm_id": 3492708, "category": "boundary", "type": "administrative", "admin_level": 4, "localname": "Makueni", "names": {"ISO3166-2": "KE-23", "name": "Makueni", "name:ceb": "Makueni", "name:de": "Makueni", "name:en": "Makueni", "name:es": "Makueni", "name:fa": "شهرستان ماکونی", "name:fr": "Makueni", "name:id": "Makueni", "name:it": "Makueni", "name:ja": "マクエニ", "name:ko": "마쿠에니현", "name:nan": "Makueni", "name:nl": "Makueni", "name:no": "Makueni", "name:pl": "Makueni", "name:sv": "Makueni", "name:sw": "Makueni", "name:ur": "ماکوینی کاؤنٹی", "name:vi": "Makueni", "name:zh": "馬瓜尼郡", "name:zu": "Makueni"}, "addresstags": [], "housenumber": null, "calculated_postcode": null, "country_code": "ke", "indexed_date": "2022-07-15T23:47:39+00:00", "importance": 0.4093923993683224, "calculated_importance": 0.4093923993683224, "extratags": {"CONST_CODE": "87", "CONSTITUEN": "KIBWEZI WEST", "COUNTY_COD": "17", "COUNTY_NAM": "MAKUENI", "ID_": "6213", "OBJECTID": "34", "Shape_Area": "0.66459009423", "Shape_Leng": "5.74677892114", "wikidata": "Q473717", "wikipedia": "en:Makueni County"}, "calculated_wikipedia": "en:Makueni_County", "icon": "https://nominatim.openstreetmap.org/ui/mapicons/poi_boundary_administrative.p.20.png", "rank_address": 8, "rank_search": 8, "isarea": true, "centroid": {"type": "Point", "coordinates": [37.87717148162716, -2.25709305]}, "geometry": {"type": "Point", "coordinates": [37.877171482, -2.25709305]}, "address": [{"localname": "Makueni", "place_id": 297949584, "osm_id": 3492708, "osm_type": "R", "place_type": null, "class": "boundary", "type": "administrative", "admin_level": 4, "rank_address": 8, "distance": 0, "isaddress": true}, {"localname": "East Kenya", "place_id": 298569054, "osm_id": 9724277, "osm_type": "R", "place_type": "state", "class": "boundary", "type": "administrative", "admin_level": 3, "rank_address": 6, "distance": 3.511554923899197e-05, "isaddress": true}, {"localname": "Kenya", "place_id": null, "osm_id": null, "osm_type": null, "place_type": null, "class": "place", "type": "country", "admin_level": null, "rank_address": 4, "distance": 0, "isaddress": true}, {"localname": "ke", "place_id": null, "osm_id": null, "osm_type": null, "place_type": null, "class": "place", "type": "country_code", "admin_level": null, "rank_address": 4, "distance": 0, "isaddress": false}]}, {"place_id": 298403735, "parent_place_id": 298737072, "osm_type": "R", "osm_id": 3495551, "category": "boundary", "type": "administrative", "admin_level": 4, "localname": "Mandera County", "names": {"ISO3166-2": "KE-24", "name": "Mandera", "name:ceb": "Mandera", "name:de": "Mandera County", "name:en": "Mandera County", "name:es": "Condado de Mandera", "name:fa": "شهرستان ماندرا", "name:fi": "Manderan piirikunta", "name:id": "County Mandera", "name:it": "Contea di Mandera", "name:ja": "マンデラ", "name:ko": "만데라현", "name:nan": "Mandera Kūn", "name:nl": "Mandera County", "name:no": "Mandera fylke", "name:pl": "Mandera", "name:sv": "Mandera", "name:sw": "Kaunti ya Mandera", "name:ur": "ماندیرا کاؤنٹی", "name:vi": "Mandera", "name:zh": "曼德拉郡", "name:zu": "Mandera County"}, "addresstags": [], "housenumber": null, "calculated_postcode": null, "country_code": "ke", "indexed_date": "2022-07-15T23:47:40+00:00", "importance": 0.4239912043659237, "calculated_importance": 0.4239912043659237, "extratags": {"CONST_CODE": "42", "CONSTITUEN": "MANDERA SOUTH", "COUNTY_COD": "9", "COUNTY_NAM": "MANDERA", "id": "264", "OBJECTID": "10", "Shape_Area": "2.11434477576", "Shape_Leng": "7.19616328425", "wikidata": "Q1477874", "wikipedia": "en:Mandera County"}, "calculated_wikipedia": "en:Mandera_County", "icon": "https://nominatim.openstreetmap.org/ui/mapicons/poi_boundary_administrative.p.20.png", "rank_address": 8, "rank_search": 8, "isarea": true, "centroid": {"type": "Point", "coordinates": [40.70561647260599, 3.2285332]}, "geometry": {"type": "Point", "coordinates": [40.705616473, 3.2285332]}, "address": [{"localname": "Mandera County", "place_id": 298403735, "osm_id": 3495551, "osm_type": "R", "place_type": null, "class": "boundary", "type": "administrative", "admin_level": 4, "rank_address": 8, "distance": 0, "isaddress": true}, {"localname": "Northeast Kenya", "place_id": 298737072, "osm_id": 9721622, "osm_type": "R", "place_type": "state", "class": "boundary", "type": "administrative", "admin_level": 3, "rank_address": 6, "distance": 2.228276090261441e-05, "isaddress": true}, {"localname": "Kenya", "place_id": null, "osm_id": null, "osm_type": null, "place_type": null, "class": "place", "type": "country", "admin_level": null, "rank_address": 4, "distance": 0, "isaddress": true}, {"localname": "ke", "place_id": null, "osm_id": null, "osm_type": null, "place_type": null, "class": "place", "type": "country_code", "admin_level": null, "rank_address": 4, "distance": 0, "isaddress": false}]}, {"place_id": 298369053, "parent_place_id": 298569054, "osm_type": "R", "osm_id": 3495552, "category": "boundary", "type": "administrative", "admin_level": 4, "localname": "Marsabit County", "names": {"ISO3166-2": "KE-25", "name": "Marsabit", "name:ceb": "Marsabit", "name:de": "Marsabit County", "name:en": "Marsabit County", "name:es": "Condado de Marsabit", "name:fa": "شهرستان مارسابیت", "name:fr": "Comté de Marsabit", "name:id": "County Marsabit", "name:it": "Contea di Marsabit", "name:ja": "マルサビット", "name:ko": "마르사비트현", "name:nan": "Marsabit Kūn", "name:nl": "Marsabit County", "name:no": "Marsabit fylke", "name:pl": "Marsabit", "name:sv": "Marsabit", "name:sw": "Kaunti ya Marsabit", "name:ur": "مارسابیت کاؤنٹی", "name:vi": "Marsabit", "name:zh": "馬薩比特郡", "name:zu": "Marsabit County"}, "addresstags": [], "housenumber": null, "calculated_postcode": null, "country_code": "ke", "indexed_date": "2022-07-15T23:47:40+00:00", "importance": 0.42996907043929583, "calculated_importance": 0.42996907043929583, "extratags": {"CONST_CODE": "46", "CONSTITUEN": "NORTH HORR", "COUNTY_COD": "10", "COUNTY_NAM": "MARSABIT", "ID_": "133", "OBJECTID": "11", "Shape_Area": "6.18501666925", "Shape_Leng": "11.8969963206", "wikidata": "Q1323683", "wikipedia": "en:Marsabit County"}, "calculated_wikipedia": "en:Marsabit_County", "icon": "https://nominatim.openstreetmap.org/ui/mapicons/poi_boundary_administrative.p.20.png", "rank_address": 8, "rank_search": 8, "isarea": true, "centroid": {"type": "Point", "coordinates": [37.715489185900395, 2.85795825]}, "geometry": {"type": "Point", "coordinates": [37.715489186, 2.85795825]}, "address": [{"localname": "Marsabit County", "place_id": 298369053, "osm_id": 3495552, "osm_type": "R", "place_type": null, "class": "boundary", "type": "administrative", "admin_level": 4, "rank_address": 8, "distance": 0, "isaddress": true}, {"localname": "East Kenya", "place_id": 298569054, "osm_id": 9724277, "osm_type": "R", "place_type": "state", "class": "boundary", "type": "administrative", "admin_level": 3, "rank_address": 6, "distance": 1.899151590501951e-05, "isaddress": true}, {"localname": "Kenya", "place_id": null, "osm_id": null, "osm_type": null, "place_type": null, "class": "place", "type": "country", "admin_level": null, "rank_address": 4, "distance": 0, "isaddress": true}, {"localname": "ke", "place_id": null, "osm_id": null, "osm_type": null, "place_type": null, "class": "place", "type": "country_code", "admin_level": null, "rank_address": 4, "distance": 0, "isaddress": false}]}, {"place_id": 298391558, "parent_place_id": 298569054, "osm_type": "R", "osm_id": 3495553, "category": "boundary", "type": "administrative", "admin_level": 4, "localname": "Meru County", "names": {"ISO3166-2": "KE-26", "name": "Meru", "name:ceb": "Meru", "name:de": "Meru County", "name:en": "Meru County", "name:es": "Condado de Meru", "name:fa": "شهرستان مرو", "name:fi": "Merun piirikunta", "name:fr": "Comté de Meru", "name:id": "County Meru", "name:it": "Contea di Meru", "name:ja": "メルー", "name:ko": "메루현", "name:nan": "Meru Kūn", "name:nl": "Meru County", "name:no": "Meru fylke", "name:pl": "Meru", "name:sv": "Meru", "name:sw": "Kaunti ya Meru", "name:ur": "میرو کاؤنٹی", "name:vi": "Meru", "name:zh": "梅魯郡", "name:zu": "Meru County"}, "addresstags": [], "housenumber": null, "calculated_postcode": null, "country_code": "ke", "indexed_date": "2022-07-15T23:47:40+00:00", "importance": 0.3967740807374235, "calculated_importance": 0.3967740807374235, "extratags": {"CONST_CODE": "56", "CONSTITUEN": "NORTH IMENTI", "COUNTY_COD": "12", "wikidata": "Q15045704", "wikipedia": "en:Meru County"}, "calculated_wikipedia": "en:Meru_County", "icon": "https://nominatim.openstreetmap.org/ui/mapicons/poi_boundary_administrative.p.20.png", "rank_address": 8, "rank_search": 8, "isarea": true, "centroid": {"type": "Point", "coordinates": [37.77726237163694, 0.2254509]}, "geometry": {"type": "Point", "coordinates": [37.777262372, 0.2254509]}, "address": [{"localname": "Meru County", "place_id": 298391558, "osm_id": 3495553, "osm_type": "R", "place_type": null, "class": "boundary", "type": "administrative", "admin_level": 4, "rank_address": 8, "distance": 0, "isaddress": true}, {"localname": "East Kenya", "place_id": 298569054, "osm_id": 9724277, "osm_type": "R", "place_type": "state", "class": "boundary", "type": "administrative", "admin_level": 3, "rank_address": 6, "distance": 1.2608997895576845e-05, "isaddress": true}, {"localname": "Kenya", "place_id": null, "osm_id": null, "osm_type": null, "place_type": null, "class": "place", "type": "country", "admin_level": null, "rank_address": 4, "distance": 0, "isaddress": true}, {"localname": "ke", "place_id": null, "osm_id": null, "osm_type": null, "place_type": null, "class": "place", "type": "country_code", "admin_level": null, "rank_address": 4, "distance": 0, "isaddress": false}]}, {"place_id": 297859219, "parent_place_id": 299148127, "osm_type": "R", "osm_id": 3486018, "category": "boundary", "type": "administrative", "admin_level": 4, "localname": "Migori County", "names": {"ISO3166-2": "KE-27", "name": "Migori", "name:ceb": "Migori", "name:de": "Migori County", "name:en": "Migori County", "name:es": "Condado de Migori", "name:fa": "شهرستان میگوری", "name:fr": "Comté de Migori", "name:id": "County Migori", "name:it": "Contea di Migori", "name:ja": "ミゴリ", "name:ko": "미고리현", "name:nan": "Migori Kūn", "name:nl": "Migori County", "name:no": "Migori fylke", "name:pl": "Migori", "name:pt": "Migori", "name:sv": "Migori", "name:sw": "Kaunti ya Migori", "name:ur": "میگوری کاؤنٹی", "name:vi": "Migori", "name:zh": "米戈利郡", "name:zu": "Migori County", "ref": "44"}, "addresstags": [], "housenumber": null, "calculated_postcode": null, "country_code": "ke", "indexed_date": "2022-07-15T23:47:39+00:00", "importance": 0, "calculated_importance": 0.55, "extratags": {"admin_type:KE": "county", "border_type": "county", "land_area": "administrative", "wikidata": "Q429955", "wikipedia": "en:Migori County"}, "calculated_wikipedia": null, "icon": "https://nominatim.openstreetmap.org/ui/mapicons/poi_boundary_administrative.p.20.png", "rank_address": 8, "rank_search": 8, "isarea": true, "centroid": {"type": "Point", "coordinates": [34.30964322421073, -1.0211616000000001]}, "geometry": {"type": "Point", "coordinates": [34.309643224, -1.0211616]}, "address": [{"localname": "Migori County", "place_id": 297859219, "osm_id": 3486018, "osm_type": "R", "place_type": null, "class": "boundary", "type": "administrative", "admin_level": 4, "rank_address": 8, "distance": 0, "isaddress": true}, {"localname": "Nyanza", "place_id": 299148127, "osm_id": 9721653, "osm_type": "R", "place_type": null, "class": "boundary", "type": "administrative", "admin_level": 3, "rank_address": 6, "distance": 5.131994495363002e-06, "isaddress": true}, {"localname": "Kenya", "place_id": null, "osm_id": null, "osm_type": null, "place_type": null, "class": "place", "type": "country", "admin_level": null, "rank_address": 4, "distance": 0, "isaddress": true}, {"localname": "ke", "place_id": null, "osm_id": null, "osm_type": null, "place_type": null, "class": "place", "type": "country_code", "admin_level": null, "rank_address": 4, "distance": 0, "isaddress": false}]}, {"place_id": 297963762, "parent_place_id": 299279293, "osm_type": "R", "osm_id": 3495554, "category": "boundary", "type": "administrative", "admin_level": 4, "localname": "Mombasa County", "names": {"alt_name:zh": "蒙巴萨县", "ISO3166-2": "KE-28", "name": "Mombasa", "name:ar": "مومباسا", "name:ceb": "Mombasa", "name:de": "Mombasa County", "name:en": "Mombasa County", "name:es": "Condado de Mombasa", "name:fa": "شهرستان مومباسا", "name:fi": "Mombasan piirikunta", "name:fr": "Comté de Mombasa", "name:id": "County Mombasa", "name:it": "Contea di Mombasa", "name:ja": "モンバサ", "name:ko": "몸바사현", "name:nan": "Mombasa Kūn", "name:nl": "Mombassa", "name:no": "Mombasa fylke", "name:pl": "Mombasa", "name:pt": "Mombaça", "name:sw": "Kaunti ya Mombasa", "name:ur": "ممباسا کاؤنٹی", "name:vi": "Mombasa", "name:zh": "蒙巴萨", "name:zu": "Mombasa County"}, "addresstags": [], "housenumber": null, "calculated_postcode": null, "country_code": "ke", "indexed_date": "2022-07-15T23:47:39+00:00", "importance": 0.40549503827050787, "calculated_importance": 0.40549503827050787, "extratags": {"CONST_CODE": "3", "CONSTITUEN": "KISAUNI", "COUNTY_COD": "1", "COUNTY_NAM": "MOMBASA", "OBJECTID": "2", "Shape_Area": "0.02332510618", "Shape_Leng": "0.88558616055", "wikidata": "Q1112885", "wikipedia": "en:Mombasa County"}, "calculated_wikipedia": "en:Mombasa_County", "icon": "https://nominatim.openstreetmap.org/ui/mapicons/poi_boundary_administrative.p.20.png", "rank_address": 8, "rank_search": 8, "isarea": true, "centroid": {"type": "Point", "coordinates": [39.64842393685704, -4.0390146]}, "geometry": {"type": "Point", "coordinates": [39.648423937, -4.0390146]}, "address": [{"localname": "Mombasa County", "place_id": 297963762, "osm_id": 3495554, "osm_type": "R", "place_type": null, "class": "boundary", "type": "administrative", "admin_level": 4, "rank_address": 8, "distance": 0, "isaddress": true}, {"localname": "Coastal Kenya", "place_id": 299279293, "osm_id": 9721636, "osm_type": "R", "place_type": null, "class": "boundary", "type": "administrative", "admin_level": 3, "rank_address": 6, "distance": 1.6424538769414343e-05, "isaddress": true}, {"localname": "Kenya", "place_id": null, "osm_id": null, "osm_type": null, "place_type": null, "class": "place", "type": "country", "admin_level": null, "rank_address": 4, "distance": 0, "isaddress": true}, {"localname": "ke", "place_id": null, "osm_id": null, "osm_type": null, "place_type": null, "class": "place", "type": "country_code", "admin_level": null, "rank_address": 4, "distance": 0, "isaddress": false}]}, {"place_id": 298310487, "parent_place_id": 298557067, "osm_type": "R", "osm_id": 3977580, "category": "boundary", "type": "administrative", "admin_level": 4, "localname": "Murang'a County", "names": {"ISO3166-2": "KE-29", "name": "Murang`a", "name:ceb": "Murang'a", "name:de": "Murang'a County", "name:en": "Murang'a County", "name:es": "Condado de Muranga", "name:fa": "شهرستان مورانگا", "name:fi": "Murangan piirikunta", "name:fr": "Comté de Muranga", "name:id": "County Murang'a", "name:it": "Contea di Muranga", "name:ja": "ムランガ", "name:ko": "무랑가현", "name:nan": "Murang'a Kūn", "name:nl": "Murang'a County", "name:no": "Murang'a fylke", "name:pl": "Murang'a", "name:pt": "Muranga", "name:sv": "Muranga", "name:sw": "Kaunti ya Murang'a", "name:ur": "مورانگا کاؤنٹی", "name:vi": "Muranga", "name:zh": "穆蘭卡郡", "name:zu": "Muranga County"}, "addresstags": [], "housenumber": null, "calculated_postcode": null, "country_code": "ke", "indexed_date": "2022-07-15T23:47:40+00:00", "importance": 0.3890073604909233, "calculated_importance": 0.3890073604909233, "extratags": {"wikidata": "Q1781723", "wikipedia": "en:Murang'a County"}, "calculated_wikipedia": "en:Muranga_County", "icon": "https://nominatim.openstreetmap.org/ui/mapicons/poi_boundary_administrative.p.20.png", "rank_address": 8, "rank_search": 8, "isarea": true, "centroid": {"type": "Point", "coordinates": [37.004861249618145, -0.83091505]}, "geometry": {"type": "Point", "coordinates": [37.00486125, -0.83091505]}, "address": [{"localname": "Murang'a County", "place_id": 298310487, "osm_id": 3977580, "osm_type": "R", "place_type": null, "class": "boundary", "type": "administrative", "admin_level": 4, "rank_address": 8, "distance": 0, "isaddress": true}, {"localname": "Central Kenya", "place_id": 298557067, "osm_id": 9721572, "osm_type": "R", "place_type": "state", "class": "boundary", "type": "administrative", "admin_level": 3, "rank_address": 6, "distance": 3.5773532160348693e-06, "isaddress": true}, {"localname": "Kenya", "place_id": null, "osm_id": null, "osm_type": null, "place_type": null, "class": "place", "type": "country", "admin_level": null, "rank_address": 4, "distance": 0, "isaddress": true}, {"localname": "ke", "place_id": null, "osm_id": null, "osm_type": null, "place_type": null, "class": "place", "type": "country_code", "admin_level": null, "rank_address": 4, "distance": 0, "isaddress": false}]}, {"place_id": 298462399, "parent_place_id": 0, "osm_type": "R", "osm_id": 3492709, "category": "boundary", "type": "administrative", "admin_level": 4, "localname": "Nairobi County", "names": {"alt_name:ko": "나이로비현", "ISO3166-2": "KE-30", "name": "Nairobi", "name:ceb": "Nairobi", "name:de": "Nairobi County", "name:en": "Nairobi County", "name:es": "Condado de Nairobi", "name:et": "Nairobi maakond", "name:fa": "شهرستان نایروبی", "name:fi": "Nairobin piirikunta", "name:fr": "Comté de Nairobi", "name:id": "County Nairobi", "name:it": "Contea di Nairobi", "name:ja": "ナイロビ", "name:ko": "나이로비", "name:nan": "Nairobi Kūn", "name:nl": "Nairobi County", "name:no": "Nairobi fylke", "name:pl": "Nairobi", "name:sw": "Kaunti ya Nairobi", "name:ur": "نیروبی کاؤنٹی", "name:vi": "Nairobi", "name:wuu": "内罗毕郡", "name:yue": "奈洛比郡", "name:zh": "内罗毕郡", "name:zh-Hans": "内罗毕郡", "name:zh-Hant": "內羅畢郡", "name:zu": "Nairobi County"}, "addresstags": [], "housenumber": null, "calculated_postcode": null, "country_code": "ke", "indexed_date": "2022-07-15T23:47:40+00:00", "importance": 0.39456551741826495, "calculated_importance": 0.39456551741826495, "extratags": {"CONST_CODE": "288", "CONSTITUEN": "KAMUKUNJI", "COUNTY_COD": "47", "COUNTY_NAM": "NAIROBI", "ID_": "5543", "OBJECTID": "1", "Shape_Area": "0.057422949", "Shape_Leng": "1.55978672217", "wikidata": "Q3335223"}, "calculated_wikipedia": "en:Nairobi_County", "icon": "https://nominatim.openstreetmap.org/ui/mapicons/poi_boundary_administrative.p.20.png", "rank_address": 8, "rank_search": 8, "isarea": true, "centroid": {"type": "Point", "coordinates": [36.8260678052949, -1.3031689499999999]}, "geometry": {"type": "Point", "coordinates": [36.826067805, -1.30316895]}, "address": [{"localname": "Nairobi County", "place_id": 298462399, "osm_id": 3492709, "osm_type": "R", "place_type": null, "class": "boundary", "type": "administrative", "admin_level": 4, "rank_address": 8, "distance": 0, "isaddress": true}, {"localname": "Kenya", "place_id": null, "osm_id": null, "osm_type": null, "place_type": null, "class": "place", "type": "country", "admin_level": null, "rank_address": 4, "distance": 0, "isaddress": true}, {"localname": "ke", "place_id": null, "osm_id": null, "osm_type": null, "place_type": null, "class": "place", "type": "country_code", "admin_level": null, "rank_address": 4, "distance": 0, "isaddress": false}]}, {"place_id": 298043523, "parent_place_id": 0, "osm_type": "R", "osm_id": 3486019, "category": "boundary", "type": "administrative", "admin_level": 4, "localname": "Nakuru", "names": {"ISO3166-2": "KE-31", "name": "Nakuru", "name:ceb": "Nakuru", "name:de": "Nakuru", "name:en": "Nakuru", "name:es": "Nakuru", "name:fa": "شهرستان ناکورو", "name:fi": "Nakurun", "name:fr": "Nakuru", "name:id": "Nakuru", "name:it": "Nakuru", "name:ja": "ナクル", "name:ko": "나쿠루현", "name:nan": "Nakuru", "name:nl": "Nakuru", "name:no": "Nakuru", "name:pl": "Nakuru", "name:sv": "Nakuru", "name:sw": "Nakuru", "name:ur": "ناکورو کاؤنٹی", "name:vi": "Nakuru", "name:zh": "納庫魯郡", "name:zu": "Nakuru"}, "addresstags": [], "housenumber": null, "calculated_postcode": null, "country_code": "ke", "indexed_date": "2022-07-15T23:47:39+00:00", "importance": 0.4119115709599313, "calculated_importance": 0.4119115709599313, "extratags": {"CONST_CODE": "172", "CONSTITUEN": "SUBUKIA", "COUNTY_COD": "32", "COUNTY_NAM": "NAKURU", "OBJECTID": "31", "Shape_Area": "0.60725078911", "Shape_Leng": "6.33797592365", "wikidata": "Q1852202", "wikipedia": "en:Nakuru County"}, "calculated_wikipedia": "en:Nakuru_County", "icon": "https://nominatim.openstreetmap.org/ui/mapicons/poi_boundary_administrative.p.20.png", "rank_address": 8, "rank_search": 8, "isarea": true, "centroid": {"type": "Point", "coordinates": [36.10080381595827, -0.4598213]}, "geometry": {"type": "Point", "coordinates": [36.100803816, -0.4598213]}, "address": [{"localname": "Nakuru", "place_id": 298043523, "osm_id": 3486019, "osm_type": "R", "place_type": null, "class": "boundary", "type": "administrative", "admin_level": 4, "rank_address": 8, "distance": 0, "isaddress": true}, {"localname": "Kenya", "place_id": null, "osm_id": null, "osm_type": null, "place_type": null, "class": "place", "type": "country", "admin_level": null, "rank_address": 4, "distance": 0, "isaddress": true}, {"localname": "ke", "place_id": null, "osm_id": null, "osm_type": null, "place_type": null, "class": "place", "type": "country_code", "admin_level": null, "rank_address": 4, "distance": 0, "isaddress": false}]}, {"place_id": 298499685, "parent_place_id": 0, "osm_type": "R", "osm_id": 3495556, "category": "boundary", "type": "administrative", "admin_level": 4, "localname": "Nandi County", "names": {"ISO3166-2": "KE-32", "name": "Nandi", "name:ceb": "Nandi North District", "name:de": "Nandi County", "name:en": "Nandi County", "name:es": "Condado de Nandi", "name:fa": "شهرستان ناندی", "name:fi": "Nandin piirikunta", "name:fr": "Comté de Nandi", "name:id": "County Nandi", "name:it": "Contea di Nandi", "name:ja": "ナンディ (カウンティ)", "name:ko": "난디현", "name:nan": "Nandi Kūn", "name:nl": "Nandi County", "name:no": "Nandi fylke", "name:pl": "Nandi (hrabstwo)", "name:sv": "Nandi (distrikt)", "name:sw": "Kaunti ya Nandi", "name:ur": "ناندی کاؤنٹی", "name:vi": "Nandi (hạt)", "name:zh": "南迪郡", "name:zu": "Nandi County"}, "addresstags": [], "housenumber": null, "calculated_postcode": null, "country_code": "ke", "indexed_date": "2022-07-15T23:47:40+00:00", "importance": 0.4095529004990606, "calculated_importance": 0.4095529004990606, "extratags": {"CONST_CODE": "156", "CONSTITUEN": "MOSOP", "COUNTY_COD": "29", "COUNTY_NAM": "NANDI", "ID_": "1582", "OBJECTID": "28", "Shape_Area": "0.23023133721", "Shape_Leng": "3.05726592217", "wikidata": "Q1964569", "wikipedia": "en:Nandi County"}, "calculated_wikipedia": "en:Nandi_County", "icon": "https://nominatim.openstreetmap.org/ui/mapicons/poi_boundary_administrative.p.20.png", "rank_address": 8, "rank_search": 8, "isarea": true, "centroid": {"type": "Point", "coordinates": [35.124492921854724, 0.22539325]}, "geometry": {"type": "Point", "coordinates": [35.124492922, 0.22539325]}, "address": [{"localname": "Nandi County", "place_id": 298499685, "osm_id": 3495556, "osm_type": "R", "place_type": null, "class": "boundary", "type": "administrative", "admin_level": 4, "rank_address": 8, "distance": 0, "isaddress": true}, {"localname": "Kenya", "place_id": null, "osm_id": null, "osm_type": null, "place_type": null, "class": "place", "type": "country", "admin_level": null, "rank_address": 4, "distance": 0, "isaddress": true}, {"localname": "ke", "place_id": null, "osm_id": null, "osm_type": null, "place_type": null, "class": "place", "type": "country_code", "admin_level": null, "rank_address": 4, "distance": 0, "isaddress": false}]}, {"place_id": 298397264, "parent_place_id": 0, "osm_type": "R", "osm_id": 3338145, "category": "boundary", "type": "administrative", "admin_level": 4, "localname": "Narok", "names": {"ISO3166-2": "KE-33", "name": "Narok", "name:ceb": "Narok", "name:de": "Narok", "name:en": "Narok", "name:es": "Narok", "name:fa": "شهرستان ناروک", "name:id": "Narok", "name:it": "Narok", "name:ja": "ナロク", "name:ko": "나로크현", "name:nan": "Narok", "name:nl": "Narok", "name:no": "Narok", "name:pl": "Narok", "name:ru": "Нарок", "name:sv": "Narok", "name:sw": "Narok", "name:ur": "ناروک", "name:vi": "Narok", "name:zh": "納羅克郡", "name:zu": "Narok", "ref": "33"}, "addresstags": [], "housenumber": null, "calculated_postcode": null, "country_code": "ke", "indexed_date": "2022-07-15T23:47:40+00:00", "importance": 0.40858356362112863, "calculated_importance": 0.40858356362112863, "extratags": {"wikidata": "Q1852220", "wikipedia": "en:Narok County"}, "calculated_wikipedia": "en:Narok_County", "icon": "https://nominatim.openstreetmap.org/ui/mapicons/poi_boundary_administrative.p.20.png", "rank_address": 8, "rank_search": 8, "isarea": true, "centroid": {"type": "Point", "coordinates": [35.47742284932569, -1.2779365500000002]}, "geometry": {"type": "Point", "coordinates": [35.477422849, -1.27793655]}, "address": [{"localname": "Narok", "place_id": 298397264, "osm_id": 3338145, "osm_type": "R", "place_type": null, "class": "boundary", "type": "administrative", "admin_level": 4, "rank_address": 8, "distance": 0, "isaddress": true}, {"localname": "Kenya", "place_id": null, "osm_id": null, "osm_type": null, "place_type": null, "class": "place", "type": "country", "admin_level": null, "rank_address": 4, "distance": 0, "isaddress": true}, {"localname": "ke", "place_id": null, "osm_id": null, "osm_type": null, "place_type": null, "class": "place", "type": "country_code", "admin_level": null, "rank_address": 4, "distance": 0, "isaddress": false}]}, {"place_id": 298025699, "parent_place_id": 299148127, "osm_type": "R", "osm_id": 3486290, "category": "boundary", "type": "administrative", "admin_level": 4, "localname": "Nyamira County", "names": {"ISO3166-2": "KE-34", "name": "Nyamira", "name:ceb": "Nyamira", "name:de": "Nyamira County", "name:en": "Nyamira County", "name:es": "Condado de Nyamira", "name:fa": "شهرستان نیامیرا", "name:fr": "Comté de Nyamira", "name:id": "County Nyamira", "name:it": "Contea di Nyamira", "name:ja": "ニャミラ", "name:ko": "니아미라현", "name:nan": "Nyamira Kūn", "name:nl": "Nyamira County", "name:no": "Nyamira fylke", "name:pl": "Nyamira", "name:sv": "Nyamira", "name:sw": "Kaunti ya Nyamira", "name:ur": "نیامیرا کاؤنٹی", "name:vi": "Nyamira", "name:zh": "尼亞米拉郡", "name:zu": "Nyamira County", "ref": "46"}, "addresstags": [], "housenumber": null, "calculated_postcode": null, "country_code": "ke", "indexed_date": "2022-07-15T23:47:39+00:00", "importance": 0, "calculated_importance": 0.55, "extratags": {"admin_type:KE": "county", "border_type": "county", "land_area": "administrative", "wikidata": "Q1569613", "wikipedia": "en:Nyamira County"}, "calculated_wikipedia": null, "icon": "https://nominatim.openstreetmap.org/ui/mapicons/poi_boundary_administrative.p.20.png", "rank_address": 8, "rank_search": 8, "isarea": true, "centroid": {"type": "Point", "coordinates": [34.934130799923295, -0.65225405]}, "geometry": {"type": "Point", "coordinates": [34.9341308, -0.65225405]}, "address": [{"localname": "Nyamira County", "place_id": 298025699, "osm_id": 3486290, "osm_type": "R", "place_type": null, "class": "boundary", "type": "administrative", "admin_level": 4, "rank_address": 8, "distance": 0, "isaddress": true}, {"localname": "Nyanza", "place_id": 299148127, "osm_id": 9721653, "osm_type": "R", "place_type": null, "class": "boundary", "type": "administrative", "admin_level": 3, "rank_address": 6, "distance": 4.5976286806517034e-06, "isaddress": true}, {"localname": "Kenya", "place_id": null, "osm_id": null, "osm_type": null, "place_type": null, "class": "place", "type": "country", "admin_level": null, "rank_address": 4, "distance": 0, "isaddress": true}, {"localname": "ke", "place_id": null, "osm_id": null, "osm_type": null, "place_type": null, "class": "place", "type": "country_code", "admin_level": null, "rank_address": 4, "distance": 0, "isaddress": false}]}, {"place_id": 297989778, "parent_place_id": 298557067, "osm_type": "R", "osm_id": 3495557, "category": "boundary", "type": "administrative", "admin_level": 4, "localname": "Nyandarua", "names": {"ISO3166-2": "KE-35", "name": "Nyandarua", "name:ceb": "Nyandarua", "name:de": "Nyandarua", "name:en": "Nyandarua", "name:es": "Nyandarua", "name:fa": "شهرستان نیانداروا", "name:fi": "Nyandaruan", "name:fr": "Nyandarua", "name:id": "Nyandarua", "name:it": "Nyandarua", "name:ja": "ニャンダルア", "name:ko": "니안다루아현", "name:nan": "Nyandarua", "name:nl": "Nyandarua", "name:no": "Nyandarua", "name:pl": "Nyandarua", "name:ru": "Ньяндаруа", "name:sv": "Nyandarua", "name:sw": "Nyandarua", "name:ur": "نیانداروا کاؤنٹی", "name:vi": "Nyandarua", "name:zh": "年達魯阿郡", "name:zu": "Nyandarua"}, "addresstags": [], "housenumber": null, "calculated_postcode": null, "country_code": "ke", "indexed_date": "2022-07-15T23:47:39+00:00", "importance": 0.40215323378951273, "calculated_importance": 0.40215323378951273, "extratags": {"CONST_CODE": "90", "CONSTITUEN": "KIPIPIRI", "COUNTY_COD": "18", "COUNTY_NAM": "NYANDARUA", "ID_": "3699", "OBJECTID": "18", "Shape_Area": "0.26542309571", "Shape_Leng": "3.48082504881", "wikidata": "Q1714352", "wikipedia": "en:Nyandarua County"}, "calculated_wikipedia": "en:Nyandarua_County", "icon": "https://nominatim.openstreetmap.org/ui/mapicons/poi_boundary_administrative.p.20.png", "rank_address": 8, "rank_search": 8, "isarea": true, "centroid": {"type": "Point", "coordinates": [36.49776838093413, -0.39155344999999997]}, "geometry": {"type": "Point", "coordinates": [36.497768381, -0.39155345]}, "address": [{"localname": "Nyandarua", "place_id": 297989778, "osm_id": 3495557, "osm_type": "R", "place_type": null, "class": "boundary", "type": "administrative", "admin_level": 4, "rank_address": 8, "distance": 0, "isaddress": true}, {"localname": "Central Kenya", "place_id": 298557067, "osm_id": 9721572, "osm_type": "R", "place_type": "state", "class": "boundary", "type": "administrative", "admin_level": 3, "rank_address": 6, "distance": 3.673618995676854e-06, "isaddress": true}, {"localname": "Kenya", "place_id": null, "osm_id": null, "osm_type": null, "place_type": null, "class": "place", "type": "country", "admin_level": null, "rank_address": 4, "distance": 0, "isaddress": true}, {"localname": "ke", "place_id": null, "osm_id": null, "osm_type": null, "place_type": null, "class": "place", "type": "country_code", "admin_level": null, "rank_address": 4, "distance": 0, "isaddress": false}]}, {"place_id": 297933433, "parent_place_id": 298557067, "osm_type": "R", "osm_id": 3495558, "category": "boundary", "type": "administrative", "admin_level": 4, "localname": "Nyeri", "names": {"ISO3166-2": "KE-36", "name": "Nyeri", "name:ceb": "Nyeri", "name:de": "Nyeri", "name:en": "Nyeri", "name:es": "Nyeri", "name:fa": "شهرستان نیری", "name:fi": "Nyerin", "name:fr": "Nyeri", "name:id": "Nyeri", "name:it": "Nyeri", "name:ja": "ニエリ", "name:ko": "니에리현", "name:nan": "Nyeri", "name:nl": "Nyeri", "name:no": "Nyeri", "name:pl": "Nyeri", "name:pt": "Nieri", "name:ru": "Ньери", "name:sv": "Nyeri", "name:sw": "Nyeri", "name:ur": "نیئری کاؤنٹی", "name:vi": "Nyeri", "name:zh": "涅里郡", "name:zu": "Nyeri"}, "addresstags": [], "housenumber": null, "calculated_postcode": null, "country_code": "ke", "indexed_date": "2022-07-15T23:47:39+00:00", "importance": 0.41113533400689056, "calculated_importance": 0.41113533400689056, "extratags": {"CONST_CODE": "95", "CONSTITUEN": "KIENI", "COUNTY_COD": "19", "COUNTY_NAM": "NYERI", "ID_": "3111", "OBJECTID": "19", "Shape_Area": "0.27090667838", "Shape_Leng": "2.98028956743", "wikidata": "Q749665", "wikipedia": "en:Nyeri County"}, "calculated_wikipedia": "en:Nyeri_County", "icon": "https://nominatim.openstreetmap.org/ui/mapicons/poi_boundary_administrative.p.20.png", "rank_address": 8, "rank_search": 8, "isarea": true, "centroid": {"type": "Point", "coordinates": [36.92956152367317, -0.32121045000000004]}, "geometry": {"type": "Point", "coordinates": [36.929561524, -0.32121045]}, "address": [{"localname": "Nyeri", "place_id": 297933433, "osm_id": 3495558, "osm_type": "R", "place_type": null, "class": "boundary", "type": "administrative", "admin_level": 4, "rank_address": 8, "distance": 0, "isaddress": true}, {"localname": "Central Kenya", "place_id": 298557067, "osm_id": 9721572, "osm_type": "R", "place_type": "state", "class": "boundary", "type": "administrative", "admin_level": 3, "rank_address": 6, "distance": 2.074539882120347e-06, "isaddress": true}, {"localname": "Kenya", "place_id": null, "osm_id": null, "osm_type": null, "place_type": null, "class": "place", "type": "country", "admin_level": null, "rank_address": 4, "distance": 0, "isaddress": true}, {"localname": "ke", "place_id": null, "osm_id": null, "osm_type": null, "place_type": null, "class": "place", "type": "country_code", "admin_level": null, "rank_address": 4, "distance": 0, "isaddress": false}]}, {"place_id": 298419843, "parent_place_id": 0, "osm_type": "R", "osm_id": 3495559, "category": "boundary", "type": "administrative", "admin_level": 4, "localname": "Samburu", "names": {"ISO3166-2": "KE-37", "name": "Samburu", "name:ceb": "Samburu", "name:de": "Samburu", "name:en": "Samburu", "name:eo": "Distrikto", "name:es": "Samburu", "name:fa": "شهرستان سامبورو", "name:fr": "Samburu", "name:id": "Samburu", "name:it": "Samburu", "name:ja": "サンブル", "name:ko": "삼부루현", "name:nan": "Samburu", "name:nl": "Samburu", "name:no": "Samburu", "name:pl": "Samburu", "name:sv": "Samburu", "name:sw": "Samburu", "name:ur": "سامبورو", "name:vi": "Samburu", "name:zh": "桑布盧郡", "name:zu": "Samburu"}, "addresstags": [], "housenumber": null, "calculated_postcode": null, "country_code": "ke", "indexed_date": "2022-07-15T23:47:40+00:00", "importance": 0.4158699476219386, "calculated_importance": 0.4158699476219386, "extratags": {"CONST_CODE": "134", "CONSTITUEN": "SAMBURU NORTH", "COUNTY_COD": "25", "COUNTY_NAM": "SAMBURU", "ID_": "401", "OBJECTID": "25", "Shape_Area": "1.70766586839", "Shape_Leng": "7.83144153059", "wikidata": "Q2096419", "wikipedia": "en:Samburu County"}, "calculated_wikipedia": "en:Samburu_County", "icon": "https://nominatim.openstreetmap.org/ui/mapicons/poi_boundary_administrative.p.20.png", "rank_address": 8, "rank_search": 8, "isarea": true, "centroid": {"type": "Point", "coordinates": [36.94216599162042, 1.5394463]}, "geometry": {"type": "Point", "coordinates": [36.942165992, 1.5394463]}, "address": [{"localname": "Samburu", "place_id": 298419843, "osm_id": 3495559, "osm_type": "R", "place_type": null, "class": "boundary", "type": "administrative", "admin_level": 4, "rank_address": 8, "distance": 0, "isaddress": true}, {"localname": "Kenya", "place_id": null, "osm_id": null, "osm_type": null, "place_type": null, "class": "place", "type": "country", "admin_level": null, "rank_address": 4, "distance": 0, "isaddress": true}, {"localname": "ke", "place_id": null, "osm_id": null, "osm_type": null, "place_type": null, "class": "place", "type": "country_code", "admin_level": null, "rank_address": 4, "distance": 0, "isaddress": false}]}, {"place_id": 298422135, "parent_place_id": 299148127, "osm_type": "R", "osm_id": 3486291, "category": "boundary", "type": "administrative", "admin_level": 4, "localname": "Siaya County", "names": {"ISO3166-2": "KE-38", "name": "Siaya", "name:ceb": "Siaya", "name:de": "Siaya County", "name:en": "Siaya County", "name:es": "Condado de Siaya", "name:fa": "شهرستان سیایا", "name:fr": "Comté de Siaya", "name:id": "County Siaya", "name:it": "Contea di Siaya", "name:ja": "シアヤ", "name:ko": "시아야현", "name:nan": "Siaya Kūn", "name:nl": "Siaya County", "name:no": "Siaya fylke", "name:pl": "Siaya", "name:pt": "Siaia", "name:sv": "Siaya", "name:sw": "Kaunti ya Siaya", "name:ur": "سیایا کاؤنٹی", "name:vi": "Siaya", "name:zh": "夏亞郡", "name:zu": "Siaya County"}, "addresstags": [], "housenumber": null, "calculated_postcode": null, "country_code": "ke", "indexed_date": "2022-07-15T23:47:40+00:00", "importance": 0.40668194371451316, "calculated_importance": 0.40668194371451316, "extratags": {"CONST_CODE": "232", "CONSTITUEN": "UGENYA", "COUNTY_COD": "41", "COUNTY_NAM": "SIAYA", "id": "2082", "OBJECTID": "40", "population:2010": "842304", "Shape_Area": "0.28583735592", "Shape_Leng": "2.80244601296", "wikidata": "Q3482913", "wikipedia": "en:Siaya County"}, "calculated_wikipedia": "en:Siaya_County", "icon": "https://nominatim.openstreetmap.org/ui/mapicons/poi_boundary_administrative.p.20.png", "rank_address": 8, "rank_search": 8, "isarea": true, "centroid": {"type": "Point", "coordinates": [34.200135009996295, -0.06040135]}, "geometry": {"type": "Point", "coordinates": [34.20013501, -0.06040135]}, "address": [{"localname": "Siaya County", "place_id": 298422135, "osm_id": 3486291, "osm_type": "R", "place_type": null, "class": "boundary", "type": "administrative", "admin_level": 4, "rank_address": 8, "distance": 0, "isaddress": true}, {"localname": "Nyanza", "place_id": 299148127, "osm_id": 9721653, "osm_type": "R", "place_type": null, "class": "boundary", "type": "administrative", "admin_level": 3, "rank_address": 6, "distance": 5.595409181195296e-06, "isaddress": true}, {"localname": "Kenya", "place_id": null, "osm_id": null, "osm_type": null, "place_type": null, "class": "place", "type": "country", "admin_level": null, "rank_address": 4, "distance": 0, "isaddress": true}, {"localname": "ke", "place_id": null, "osm_id": null, "osm_type": null, "place_type": null, "class": "place", "type": "country_code", "admin_level": null, "rank_address": 4, "distance": 0, "isaddress": false}]}, {"place_id": 298334480, "parent_place_id": 299279293, "osm_type": "R", "osm_id": 3495560, "category": "boundary", "type": "administrative", "admin_level": 4, "localname": "Taita-Taveta", "names": {"ISO3166-2": "KE-39", "name": "Taita Taveta", "name:ceb": "Taita Taveta", "name:de": "Taita-Taveta", "name:en": "Taita-Taveta", "name:es": "Taita-Taveta", "name:fa": "شهرستان تایتا-تاوتا", "name:fr": "Taita-Taveta", "name:id": "Taita-Taveta", "name:it": "Taita-Taveta", "name:ja": "タイタ＝タヴェタ", "name:ko": "타이타타베타현", "name:nan": "Taita-Taveta", "name:nl": "Taita Taveta", "name:no": "Taita-Taveta", "name:pl": "Taita-Taveta", "name:sv": "Taita-Taveta", "name:sw": "Taita-Taveta", "name:ur": "تائتا-تاویتا کاؤنٹی", "name:vi": "Taita-Taveta", "name:zh": "泰塔塔維塔郡", "name:zu": "Taita-Taveta"}, "addresstags": [], "housenumber": null, "calculated_postcode": null, "country_code": "ke", "indexed_date": "2022-07-15T23:47:40+00:00", "importance": 0, "calculated_importance": 0.55, "extratags": {"CONST_CODE": "24", "CONSTITUEN": "WUNDANYI", "COUNTY_COD": "6", "COUNTY_NAM": "TAITA TAVETA", "OBJECTID": "7", "Shape_Area": "1.39385877374", "Shape_Leng": "5.5844513245", "wikidata": "Q7193788", "wikipedia": "en:Taita-Taveta County"}, "calculated_wikipedia": null, "icon": "https://nominatim.openstreetmap.org/ui/mapicons/poi_boundary_administrative.p.20.png", "rank_address": 8, "rank_search": 8, "isarea": true, "centroid": {"type": "Point", "coordinates": [38.36706762808966, -3.4178355]}, "geometry": {"type": "Point", "coordinates": [38.367067628, -3.4178355]}, "address": [{"localname": "Taita-Taveta", "place_id": 298334480, "osm_id": 3495560, "osm_type": "R", "place_type": null, "class": "boundary", "type": "administrative", "admin_level": 4, "rank_address": 8, "distance": 0, "isaddress": true}, {"localname": "Coastal Kenya", "place_id": 299279293, "osm_id": 9721636, "osm_type": "R", "place_type": null, "class": "boundary", "type": "administrative", "admin_level": 3, "rank_address": 6, "distance": 1.741722143151442e-05, "isaddress": true}, {"localname": "Kenya", "place_id": null, "osm_id": null, "osm_type": null, "place_type": null, "class": "place", "type": "country", "admin_level": null, "rank_address": 4, "distance": 0, "isaddress": true}, {"localname": "ke", "place_id": null, "osm_id": null, "osm_type": null, "place_type": null, "class": "place", "type": "country_code", "admin_level": null, "rank_address": 4, "distance": 0, "isaddress": false}]}, {"place_id": 298696632, "parent_place_id": 299279293, "osm_type": "R", "osm_id": 3495561, "category": "boundary", "type": "administrative", "admin_level": 4, "localname": "Tana River County", "names": {"ISO3166-2": "KE-40", "name": "Tana River", "name:ceb": "Tana River", "name:de": "Tana River County", "name:en": "Tana River County", "name:es": "Condado del Río Tana", "name:fa": "شهرستان رود تانا", "name:fr": "Comté de Tana River", "name:id": "County Tana River", "name:it": "Contea di Tana River", "name:ja": "タナ川", "name:ko": "타나리버현", "name:nan": "Tana River Kūn", "name:nl": "Tana River County", "name:no": "Tana River fylke", "name:pl": "Tana River", "name:ru": "Река Тана", "name:sv": "Tana River", "name:sw": "Kaunti ya Tana River", "name:ur": "دریائے تانا کاؤنٹی", "name:vi": "Tana River", "name:zh": "塔納河郡", "name:zu": "Tana River County"}, "addresstags": [], "housenumber": null, "calculated_postcode": null, "country_code": "ke", "indexed_date": "2022-07-15T23:47:40+00:00", "importance": 0.4107435183238231, "calculated_importance": 0.4107435183238231, "extratags": {"CONST_CODE": "19", "CONSTITUEN": "GALOLE", "COUNTY_COD": "4", "COUNTY_NAM": "TANA RIVER", "ID_": "5806", "OBJECTID": "5", "Shape_Area": "3.18421263617", "Shape_Leng": "10.2804493709", "wikidata": "Q383150", "wikipedia": "en:Tana River County"}, "calculated_wikipedia": "en:Tana_River_County", "icon": "https://nominatim.openstreetmap.org/ui/mapicons/poi_boundary_administrative.p.20.png", "rank_address": 8, "rank_search": 8, "isarea": true, "centroid": {"type": "Point", "coordinates": [39.55083745466502, -1.53651195]}, "geometry": {"type": "Point", "coordinates": [39.550837455, -1.53651195]}, "address": [{"localname": "Tana River County", "place_id": 298696632, "osm_id": 3495561, "osm_type": "R", "place_type": null, "class": "boundary", "type": "administrative", "admin_level": 4, "rank_address": 8, "distance": 0, "isaddress": true}, {"localname": "Coastal Kenya", "place_id": 299279293, "osm_id": 9721636, "osm_type": "R", "place_type": null, "class": "boundary", "type": "administrative", "admin_level": 3, "rank_address": 6, "distance": 8.957831184424423e-06, "isaddress": true}, {"localname": "Kenya", "place_id": null, "osm_id": null, "osm_type": null, "place_type": null, "class": "place", "type": "country", "admin_level": null, "rank_address": 4, "distance": 0, "isaddress": true}, {"localname": "ke", "place_id": null, "osm_id": null, "osm_type": null, "place_type": null, "class": "place", "type": "country_code", "admin_level": null, "rank_address": 4, "distance": 0, "isaddress": false}]}, {"place_id": 297968429, "parent_place_id": 298569054, "osm_type": "R", "osm_id": 3495562, "category": "boundary", "type": "administrative", "admin_level": 4, "localname": "Tharaka-Nithi", "names": {"ISO3166-2": "KE-41", "name": "Tharaka", "name:ceb": "Tharaka-Nithi", "name:de": "Tharaka-Nithi", "name:en": "Tharaka-Nithi", "name:es": "Tharaka-Nithi", "name:fa": "شهرستان تاراکا-نیتی", "name:fr": "Tharaka-Nithi", "name:id": "Tharaka-Nithi", "name:it": "Tharaka-Nithi", "name:ja": "タラカ＝ニシ", "name:ko": "타라카니티현", "name:nan": "Tharaka-Nithi", "name:nl": "Tharaka-Nithi", "name:no": "Tharaka-Nithi", "name:pl": "Tharaka-Nithi", "name:sv": "Tharaka-Nithi", "name:sw": "Tharaka-Nithi", "name:ur": "تھاراکا-نیتھی کاؤنٹی", "name:vi": "Tharaka-Nithi", "name:zh": "薩拉卡尼蒂郡", "name:zu": "Tharaka-Nithi"}, "addresstags": [], "housenumber": null, "calculated_postcode": null, "country_code": "ke", "indexed_date": "2022-07-15T23:47:39+00:00", "importance": 0.3953778178008733, "calculated_importance": 0.3953778178008733, "extratags": {"CONST_CODE": "60", "CONSTITUEN": "MAARA", "COUNTY_COD": "13", "COUNTY_NAM": "THARAKA - NITHI", "ID_": "3303", "OBJECTID": "14", "Shape_Area": "0.20962152815", "Shape_Leng": "2.9883739317", "wikidata": "Q2189432", "wikipedia": "en:Tharaka-Nithi County"}, "calculated_wikipedia": "en:Tharaka-Nithi_County", "icon": "https://nominatim.openstreetmap.org/ui/mapicons/poi_boundary_administrative.p.20.png", "rank_address": 8, "rank_search": 8, "isarea": true, "centroid": {"type": "Point", "coordinates": [37.96140495608314, -0.19370805000000002]}, "geometry": {"type": "Point", "coordinates": [37.961404956, -0.19370805]}, "address": [{"localname": "Tharaka-Nithi", "place_id": 297968429, "osm_id": 3495562, "osm_type": "R", "place_type": null, "class": "boundary", "type": "administrative", "admin_level": 4, "rank_address": 8, "distance": 0, "isaddress": true}, {"localname": "East Kenya", "place_id": 298569054, "osm_id": 9724277, "osm_type": "R", "place_type": "state", "class": "boundary", "type": "administrative", "admin_level": 3, "rank_address": 6, "distance": 1.514813495396843e-05, "isaddress": true}, {"localname": "Kenya", "place_id": null, "osm_id": null, "osm_type": null, "place_type": null, "class": "place", "type": "country", "admin_level": null, "rank_address": 4, "distance": 0, "isaddress": true}, {"localname": "ke", "place_id": null, "osm_id": null, "osm_type": null, "place_type": null, "class": "place", "type": "country_code", "admin_level": null, "rank_address": 4, "distance": 0, "isaddress": false}]}, {"place_id": 298450559, "parent_place_id": 0, "osm_type": "R", "osm_id": 3495563, "category": "boundary", "type": "administrative", "admin_level": 4, "localname": "Trans-Nzoia County", "names": {"ISO3166-2": "KE-42", "name": "Trans Nzoia", "name:ceb": "Trans Nzoia", "name:de": "Trans-Nzoia County", "name:en": "Trans-Nzoia County", "name:es": "Condado de Trans-Nzoia", "name:et": "Trans Nzoia maakond", "name:fa": "شهرستان ترانس انزویا", "name:fr": "Comté de Trans-Nzoia", "name:id": "County Trans-Nzoia", "name:it": "Contea di Trans-Nzoia", "name:ja": "トランス・ンゾイア", "name:ko": "트랜스은조이아현", "name:nan": "Trans-Nzoia Kūn", "name:nl": "Trans-Nzoia County", "name:no": "Trans-Nzoia fylke", "name:pl": "Trans Nzoia", "name:ru": "Занзойский округ", "name:sv": "Trans-Nzoia", "name:sw": "Kaunti ya Trans-Nzoia", "name:ur": "ٹرانس-نزویا کاؤنٹی", "name:vi": "Trans-Nzoia", "name:zh": "特蘭斯-恩佐亞郡", "name:zu": "Trans-Nzoia County"}, "addresstags": [], "housenumber": null, "calculated_postcode": null, "country_code": "ke", "indexed_date": "2022-07-15T23:47:40+00:00", "importance": 0.3907715567723952, "calculated_importance": 0.3907715567723952, "extratags": {"CONST_CODE": "137", "CONSTITUEN": "ENDEBESS", "COUNTY_COD": "26", "COUNTY_NAM": "TRANS NZOIA", "id": "667", "OBJECTID": "47", "Shape_Area": "0.20192419449", "Shape_Leng": "2.33533782345", "wikidata": "Q1278653", "wikipedia": "en:Trans-Nzoia County"}, "calculated_wikipedia": "en:Trans-Nzoia_County", "icon": "https://nominatim.openstreetmap.org/ui/mapicons/poi_boundary_administrative.p.20.png", "rank_address": 8, "rank_search": 8, "isarea": true, "centroid": {"type": "Point", "coordinates": [34.97904397271594, 1.0454582499999998]}, "geometry": {"type": "Point", "coordinates": [34.979043973, 1.04545825]}, "address": [{"localname": "Trans-Nzoia County", "place_id": 298450559, "osm_id": 3495563, "osm_type": "R", "place_type": null, "class": "boundary", "type": "administrative", "admin_level": 4, "rank_address": 8, "distance": 0, "isaddress": true}, {"localname": "Kenya", "place_id": null, "osm_id": null, "osm_type": null, "place_type": null, "class": "place", "type": "country", "admin_level": null, "rank_address": 4, "distance": 0, "isaddress": true}, {"localname": "ke", "place_id": null, "osm_id": null, "osm_type": null, "place_type": null, "class": "place", "type": "country_code", "admin_level": null, "rank_address": 4, "distance": 0, "isaddress": false}]}, {"place_id": 297859937, "parent_place_id": 0, "osm_type": "R", "osm_id": 3495564, "category": "boundary", "type": "administrative", "admin_level": 4, "localname": "Turkana County", "names": {"ISO3166-2": "KE-43", "name": "Turkana", "name:ar": "توركانا", "name:ceb": "Turkana", "name:de": "Turkana County", "name:en": "Turkana County", "name:es": "Condado de Turkana", "name:fa": "شهرستان تورکانا", "name:fr": "Comté de Turkana", "name:id": "Kabupaten Turkana", "name:it": "Contea di Turkana", "name:ja": "トゥルカナ", "name:ko": "투르카나현", "name:nan": "Turkana Kūn", "name:nl": "Turkana County", "name:no": "Turkana fylke", "name:pl": "Turkana", "name:sv": "Turkana", "name:sw": "Kaunti ya Turkana", "name:ur": "ترکانا کاؤنٹی", "name:vi": "Turkana", "name:zh": "圖爾卡納郡", "name:zu": "Turkana County"}, "addresstags": [], "housenumber": null, "calculated_postcode": null, "country_code": "ke", "indexed_date": "2022-07-15T23:47:39+00:00", "importance": 0.44157890777664405, "calculated_importance": 0.44157890777664405, "extratags": {"OBJECTID": "23", "wikidata": "Q1633078", "wikipedia": "en:Turkana County"}, "calculated_wikipedia": "en:Turkana_County", "icon": "https://nominatim.openstreetmap.org/ui/mapicons/poi_boundary_administrative.p.20.png", "rank_address": 8, "rank_search": 8, "isarea": true, "centroid": {"type": "Point", "coordinates": [35.59772282185919, 2.76556575]}, "geometry": {"type": "Point", "coordinates": [35.597722822, 2.76556575]}, "address": [{"localname": "Turkana County", "place_id": 297859937, "osm_id": 3495564, "osm_type": "R", "place_type": null, "class": "boundary", "type": "administrative", "admin_level": 4, "rank_address": 8, "distance": 0, "isaddress": true}, {"localname": "Kenya", "place_id": null, "osm_id": null, "osm_type": null, "place_type": null, "class": "place", "type": "country", "admin_level": null, "rank_address": 4, "distance": 0, "isaddress": true}, {"localname": "ke", "place_id": null, "osm_id": null, "osm_type": null, "place_type": null, "class": "place", "type": "country_code", "admin_level": null, "rank_address": 4, "distance": 0, "isaddress": false}]}, {"place_id": 298044244, "parent_place_id": 0, "osm_type": "R", "osm_id": 3495565, "category": "boundary", "type": "administrative", "admin_level": 4, "localname": "Uasin Gishu County", "names": {"ISO3166-2": "KE-44", "name": "Uasin Gishu", "name:ceb": "Uasin Gishu", "name:de": "Uasin Gishu County", "name:en": "Uasin Gishu County", "name:es": "Condado de Uasin Gishu", "name:eu": "Uasin Gishu konderria", "name:fa": "شهرستان یوسین گیشو", "name:fr": "Comté de Uasin Gishu", "name:id": "County Uasin Gishu", "name:it": "Contea di Uasin Gishu", "name:ja": "ウアシン・ギシュ", "name:ko": "우아신기슈현", "name:nan": "Uasin Gishu Kūn", "name:nl": "Uasin Gishu County", "name:no": "Uasin Gishu fylke", "name:pl": "Uasin Gishu", "name:ru": "Уасин-Гишу", "name:sv": "Uasin Gishu", "name:sw": "Kaunti ya Uasin Gishu", "name:ur": "یواسین گیشو کاؤنٹی", "name:vi": "Uasin Gishu", "name:zh": "瓦辛基蘇郡", "name:zu": "Uasin Gishu County"}, "addresstags": [], "housenumber": null, "calculated_postcode": null, "country_code": "ke", "indexed_date": "2022-07-15T23:47:39+00:00", "importance": 0.41267815297399674, "calculated_importance": 0.41267815297399674, "extratags": {"CONST_CODE": "144", "CONSTITUEN": "AINABKOI", "COUNTY_COD": "27", "COUNTY_NAM": "UASIN GISHU", "ID_": "1723", "OBJECTID": "26", "Shape_Area": "0.27589006735", "Shape_Leng": "3.79630380519", "wikidata": "Q1121429", "wikipedia": "en:Uasin Gishu County"}, "calculated_wikipedia": "en:Uasin_Gishu_County", "icon": "https://nominatim.openstreetmap.org/ui/mapicons/poi_boundary_administrative.p.20.png", "rank_address": 8, "rank_search": 8, "isarea": true, "centroid": {"type": "Point", "coordinates": [35.30505973699228, 0.4771938]}, "geometry": {"type": "Point", "coordinates": [35.305059737, 0.4771938]}, "address": [{"localname": "Uasin Gishu County", "place_id": 298044244, "osm_id": 3495565, "osm_type": "R", "place_type": null, "class": "boundary", "type": "administrative", "admin_level": 4, "rank_address": 8, "distance": 0, "isaddress": true}, {"localname": "Kenya", "place_id": null, "osm_id": null, "osm_type": null, "place_type": null, "class": "place", "type": "country", "admin_level": null, "rank_address": 4, "distance": 0, "isaddress": true}, {"localname": "ke", "place_id": null, "osm_id": null, "osm_type": null, "place_type": null, "class": "place", "type": "country_code", "admin_level": null, "rank_address": 4, "distance": 0, "isaddress": false}]}, {"place_id": 298534815, "parent_place_id": 298472340, "osm_type": "R", "osm_id": 3486322, "category": "boundary", "type": "administrative", "admin_level": 4, "localname": "Vihiga County", "names": {"ISO3166-2": "KE-45", "name": "Vihiga", "name:ceb": "Vihiga", "name:de": "Vihiga County", "name:en": "Vihiga County", "name:es": "Condado de Vihiga", "name:fa": "شهرستان ویهیگا", "name:fr": "Comté de Vihiga", "name:id": "County Vihiga", "name:it": "Contea di Vihiga", "name:ja": "ヴィヒガ", "name:ko": "비히가현", "name:nan": "Vihiga Kūn", "name:nl": "Vihiga County", "name:no": "Vihiga fylke", "name:pl": "Vihiga", "name:ru": "Вихига", "name:sv": "Vihiga", "name:sw": "Kaunti ya Vihiga", "name:ur": "ویہیگا کاؤنٹی", "name:vi": "Vihiga", "name:zh": "韋希加郡", "name:zu": "Vihiga County"}, "addresstags": [], "housenumber": null, "calculated_postcode": null, "country_code": "ke", "indexed_date": "2022-07-15T23:47:40+00:00", "importance": 0.39567969138088827, "calculated_importance": 0.39567969138088827, "extratags": {"CONST_CODE": "213", "CONSTITUEN": "HAMISI", "COUNTY_COD": "38", "COUNTY_NAM": "VIHIGA", "ID_": "2515", "OBJECTID": "37", "Shape_Area": "0.04549045865", "Shape_Leng": "1.24925510587", "wikidata": "Q1313202", "wikipedia": "en:Vihiga County"}, "calculated_wikipedia": "en:Vihiga_County", "icon": "https://nominatim.openstreetmap.org/ui/mapicons/poi_boundary_administrative.p.20.png", "rank_address": 8, "rank_search": 8, "isarea": true, "centroid": {"type": "Point", "coordinates": [34.708033906814826, 0.0831199]}, "geometry": {"type": "Point", "coordinates": [34.708033907, 0.0831199]}, "address": [{"localname": "Vihiga County", "place_id": 298534815, "osm_id": 3486322, "osm_type": "R", "place_type": null, "class": "boundary", "type": "administrative", "admin_level": 4, "rank_address": 8, "distance": 0, "isaddress": true}, {"localname": "West Kenya", "place_id": 298472340, "osm_id": 9721837, "osm_type": "R", "place_type": null, "class": "boundary", "type": "administrative", "admin_level": 3, "rank_address": 6, "distance": 5.164080782739334e-06, "isaddress": true}, {"localname": "Kenya", "place_id": null, "osm_id": null, "osm_type": null, "place_type": null, "class": "place", "type": "country", "admin_level": null, "rank_address": 4, "distance": 0, "isaddress": true}, {"localname": "ke", "place_id": null, "osm_id": null, "osm_type": null, "place_type": null, "class": "place", "type": "country_code", "admin_level": null, "rank_address": 4, "distance": 0, "isaddress": false}]}, {"place_id": 297882031, "parent_place_id": 298737072, "osm_type": "R", "osm_id": 3495566, "category": "boundary", "type": "administrative", "admin_level": 4, "localname": "Wajir County", "names": {"ISO3166-2": "KE-46", "name": "Wajir", "name:ceb": "Wajir", "name:de": "Wajir County", "name:en": "Wajir County", "name:es": "Condado de Wajir", "name:fa": "شهرستان واجیر", "name:fr": "Comté de Wajir", "name:id": "County Wajir", "name:it": "Contea di Wajir", "name:ja": "ワジール", "name:ko": "와지르현", "name:nan": "Wajir Kūn", "name:nl": "Wajir County", "name:no": "Wajir fylke", "name:pl": "Wajir", "name:ru": "Ваджир", "name:sv": "Wajir", "name:sw": "Kaunti ya Wajir", "name:ur": "واجیر کاؤنٹی", "name:vi": "Wajir", "name:zh": "瓦吉爾郡", "name:zu": "Wajir County"}, "addresstags": [], "housenumber": null, "calculated_postcode": null, "country_code": "ke", "indexed_date": "2022-07-15T23:47:39+00:00", "importance": 0.4289829310113359, "calculated_importance": 0.4289829310113359, "extratags": {"CONST_CODE": "36", "CONSTITUEN": "WAJIR WEST", "COUNTY_COD": "8", "COUNTY_NAM": "WAJIR", "id": "663", "OBJECTID": "9", "Shape_Area": "4.60636555222", "Shape_Leng": "9.96942202517", "wikidata": "Q1852209", "wikipedia": "en:Wajir County"}, "calculated_wikipedia": "en:Wajir_County", "icon": "https://nominatim.openstreetmap.org/ui/mapicons/poi_boundary_administrative.p.20.png", "rank_address": 8, "rank_search": 8, "isarea": true, "centroid": {"type": "Point", "coordinates": [40.02449393200057, 1.9394402]}, "geometry": {"type": "Point", "coordinates": [40.024493932, 1.9394402]}, "address": [{"localname": "Wajir County", "place_id": 297882031, "osm_id": 3495566, "osm_type": "R", "place_type": null, "class": "boundary", "type": "administrative", "admin_level": 4, "rank_address": 8, "distance": 0, "isaddress": true}, {"localname": "Northeast Kenya", "place_id": 298737072, "osm_id": 9721622, "osm_type": "R", "place_type": "state", "class": "boundary", "type": "administrative", "admin_level": 3, "rank_address": 6, "distance": 9.044622262902066e-06, "isaddress": true}, {"localname": "Kenya", "place_id": null, "osm_id": null, "osm_type": null, "place_type": null, "class": "place", "type": "country", "admin_level": null, "rank_address": 4, "distance": 0, "isaddress": true}, {"localname": "ke", "place_id": null, "osm_id": null, "osm_type": null, "place_type": null, "class": "place", "type": "country_code", "admin_level": null, "rank_address": 4, "distance": 0, "isaddress": false}]}, {"place_id": 298723381, "parent_place_id": 0, "osm_type": "R", "osm_id": 11981571, "category": "boundary", "type": "administrative", "admin_level": 4, "localname": "West Pokot", "names": {"ISO3166-2": "KE-47", "name": "West Pokot", "name:ceb": "West Pokot", "name:de": "West Pokot", "name:en": "West Pokot", "name:es": "West Pokot", "name:fa": "شهرستان پوکوت غربی", "name:fi": "Länsi-Pokotin", "name:id": "West Pokot", "name:it": "West Pokot", "name:ja": "西ポコット", "name:ko": "서포코트현", "name:nan": "West Pokot", "name:nl": "West-Pokot", "name:no": "West Pokot", "name:pl": "West Pokot", "name:ru": "Западный покотский", "name:sv": "Västra Pokot", "name:sw": "West Pokot", "name:ur": "مغربی پوکوت کاؤنٹی", "name:vi": "West Pokot", "name:zh": "西波克特郡", "name:zu": "West Pokot"}, "addresstags": [], "housenumber": null, "calculated_postcode": null, "country_code": "ke", "indexed_date": "2022-07-15T23:47:40+00:00", "importance": 0.4032282447532356, "calculated_importance": 0.4032282447532356, "extratags": {"wikidata": "Q590860", "wikipedia": "en:West Pokot County"}, "calculated_wikipedia": "en:West_Pokot_County", "icon": "https://nominatim.openstreetmap.org/ui/mapicons/poi_boundary_administrative.p.20.png", "rank_address": 8, "rank_search": 8, "isarea": true, "centroid": {"type": "Point", "coordinates": [35.21061300684997, 1.8798607999999999]}, "geometry": {"type": "Point", "coordinates": [35.210613007, 1.8798608]}, "address": [{"localname": "West Pokot", "place_id": 298723381, "osm_id": 11981571, "osm_type": "R", "place_type": null, "class": "boundary", "type": "administrative", "admin_level": 4, "rank_address": 8, "distance": 0, "isaddress": true}, {"localname": "Kenya", "place_id": null, "osm_id": null, "osm_type": null, "place_type": null, "class": "place", "type": "country", "admin_level": null, "rank_address": 4, "distance": 0, "isaddress": true}, {"localname": "ke", "place_id": null, "osm_id": null, "osm_type": null, "place_type": null, "class": "place", "type": "country_code", "admin_level": null, "rank_address": 4, "distance": 0, "isaddress": false}]}]